$GPRMC,092648.20,A,3622.5296077,N,12721.7134042,E,16.63,317.99,111125,0.0,E,A*0B
$GPGGA,092648.20,3622.5296077,N,12721.7134042,E,1,05,1.0,77.279,M,0.000,M,0.0,*44
$GPGSA,A,3,02,08,16,26,27,,,,,,,,20.1,11.3,16.7,1*13
$GPGSV,2,1,05,02,24,178,43,08,69,255,46,16,50,062,44,26,23,093,45,1*60
$GPGSV,2,2,05,27,72,029,48,,,,,,,,,,,,,1*56
$GPRMC,092648.30,A,3622.5257166,N,12721.7175986,E,19.04,136.80,111125,0.0,E,A*05
$GPGGA,092648.30,3622.5257166,N,12721.7175986,E,1,05,1.0,85.696,M,0.000,M,0.0,*45
$GPGSA,A,3,02,08,16,26,27,,,,,,,,20.1,11.3,16.7,1*13
$GPGSV,2,1,05,02,24,178,43,08,69,255,46,16,50,062,44,26,23,093,46,1*63
$GPGSV,2,2,05,27,72,029,48,,,,,,,,,,,,,1*56
$GPRMC,092648.40,A,3622.5297580,N,12721.7121289,E,26.71,135.61,111125,0.0,E,A*05
$GPGGA,092648.40,3622.5297580,N,12721.7121289,E,1,05,1.0,69.917,M,0.000,M,0.0,*43
$GPGSA,A,3,02,08,16,26,27,,,,,,,,20.1,11.3,16.7,1*13
$GPGSV,2,1,05,02,24,178,43,08,69,255,46,16,50,062,44,26,23,093,46,1*63
$GPGSV,2,2,05,27,72,029,48,,,,,,,,,,,,,1*56
$GPRMC,092648.70,A,3622.5338006,N,12721.7060450,E,15.01,140.93,111125,0.0,E,A*07
$GPGGA,092648.70,3622.5338006,N,12721.7060450,E,1,05,1.0,59.473,M,0.000,M,0.0,*45
$GPGSA,A,3,02,08,16,26,27,,,,,,,,20.1,11.3,16.7,1*13
$GPGSV,2,1,05,02,24,178,43,08,69,255,46,16,50,062,44,26,23,093,46,1*63
$GPGSV,2,2,05,27,72,029,48,,,,,,,,,,,,,1*56
$GPRMC,092648.80,A,3622.5259869,N,12721.7160600,E,17.44,140.08,111125,0.0,E,A*08
$GPGGA,092648.80,3622.5259869,N,12721.7160600,E,1,05,1.0,91.220,M,0.000,M,0.0,*4F
$GPGSA,A,3,02,08,16,26,27,,,,,,,,20.1,11.3,16.7,1*13
$GPGSV,2,1,05,02,24,178,43,08,69,255,46,16,50,062,44,26,23,093,45,1*60
$GPGSV,2,2,05,27,72,029,48,,,,,,,,,,,,,1*56
$GPRMC,092648.90,A,3622.5347036,N,12721.7076335,E,1.26,140.08,111125,0.0,E,A*33
$GPGGA,092648.90,3622.5347036,N,12721.7076335,E,1,05,1.0,60.017,M,0.000,M,0.0,*4F
$GPGSA,A,3,02,08,16,26,27,,,,,,,,20.1,11.3,16.7,1*13
$GPGSV,2,1,05,02,24,178,43,08,69,255,46,16,50,062,45,26,23,093,45,1*61
$GPGSV,2,2,05,27,72,029,48,,,,,,,,,,,,,1*56
$GPRMC,092649.30,A,3622.5237485,N,12721.7191219,E,10.55,136.73,111125,0.0,E,A*0C
$GPGGA,092649.30,3622.5237485,N,12721.7191219,E,1,05,1.0,93.784,M,0.000,M,0.0,*48
$GPGSA,A,3,02,08,16,26,27,,,,,,,,20.1,11.3,16.6,1*12
$GPGSV,2,1,05,02,24,178,43,08,69,255,46,16,50,062,45,26,23,093,45,1*61
$GPGSV,2,2,05,27,72,029,48,,,,,,,,,,,,,1*56
$GPRMC,092649.40,A,3622.5272423,N,12721.7157989,E,10.72,135.93,111125,0.0,E,A*06
$GPGGA,092649.40,3622.5272423,N,12721.7157989,E,1,05,1.0,83.303,M,0.000,M,0.0,*40
$GPGSA,A,3,02,08,16,26,27,,,,,,,,20.1,11.3,16.6,1*12
$GPGSV,2,1,05,02,24,178,43,08,69,255,46,16,50,062,45,26,23,093,45,1*61
$GPGSV,2,2,05,27,72,029,48,,,,,,,,,,,,,1*56
$GPRMC,092649.50,A,3622.5425415,N,12721.6990946,E,0.86,135.93,111125,0.0,E,A*3D
$GPGGA,092649.50,3622.5425415,N,12721.6990946,E,1,05,1.0,30.079,M,0.000,M,0.0,*47
$GPGSA,A,3,02,08,16,26,27,,,,,,,,20.1,11.3,16.6,1*12
$GPGSV,2,1,05,02,24,178,43,08,69,255,46,16,50,062,45,26,23,093,45,1*61
$GPGSV,2,2,05,27,72,029,48,,,,,,,,,,,,,1*56
$GPRMC,092649.90,A,3622.5248070,N,12721.7159536,E,2.77,349.16,111125,0.0,E,A*34
$GPGGA,092649.90,3622.5248070,N,12721.7159536,E,1,05,1.0,89.952,M,0.000,M,0.0,*44
$GPGSA,A,3,02,08,16,26,27,,,,,,,,20.1,11.3,16.6,1*12
$GPGSV,2,1,05,02,24,178,44,08,69,255,47,16,50,062,45,26,23,093,45,1*67
$GPGSV,2,2,05,27,72,029,48,,,,,,,,,,,,,1*56
$GPRMC,092650.00,A,3622.5287348,N,12721.7127597,E,8.10,138.58,111125,0.0,E,A*39
$GPGGA,092650.00,3622.5287348,N,12721.7127597,E,1,05,1.0,80.015,M,0.000,M,0.0,*4F
$GPGSA,A,3,02,08,16,26,27,,,,,,,,20.1,11.3,16.6,1*12
$GPGSV,2,1,05,02,24,178,44,08,69,255,46,16,50,062,45,26,23,093,45,1*66
$GPGSV,2,2,05,27,72,029,48,,,,,,,,,,,,,1*56
$GPRMC,092650.10,A,3622.5275590,N,12721.7147512,E,4.43,146.33,111125,0.0,E,A*33
$GPGGA,092650.10,3622.5275590,N,12721.7147512,E,1,05,1.0,88.358,M,0.000,M,0.0,*49
$GPGSA,A,3,02,08,16,26,27,,,,,,,,20.1,11.3,16.6,1*12
$GPGSV,2,1,05,02,24,178,44,08,69,255,47,16,50,062,45,26,23,093,45,1*67
$GPGSV,2,2,05,27,72,029,48,,,,,,,,,,,,,1*56
$GPRMC,092650.50,A,3622.5206009,N,12721.7206829,E,16.89,311.21,111125,0.0,E,A*03
$GPGGA,092650.50,3622.5206009,N,12721.7206829,E,1,05,1.0,105.284,M,0.000,M,0.0,*7B
$GPGSA,A,3,02,08,16,26,27,,,,,,,,20.1,11.3,16.6,1*12
$GPGSV,2,1,05,02,24,178,43,08,69,255,47,16,50,062,46,26,23,093,45,1*63
$GPGSV,2,2,05,27,72,029,48,,,,,,,,,,,,,1*56
$GPRMC,092650.60,A,3622.5297124,N,12721.7107008,E,13.25,313.62,111125,0.0,E,A*09
$GPGGA,092650.60,3622.5297124,N,12721.7107008,E,1,05,1.0,70.991,M,0.000,M,0.0,*4B
$GPGSA,A,3,02,08,16,26,27,,,,,,,,20.1,11.3,16.6,1*12
$GPGSV,2,1,05,02,24,178,43,08,69,255,47,16,50,062,46,26,23,093,45,1*63
$GPGSV,2,2,05,27,72,029,48,,,,,,,,,,,,,1*56
$GPRMC,092650.70,A,3622.5412263,N,12721.6987955,E,13.23,143.31,111125,0.0,E,A*04
$GPGGA,092650.70,3622.5412263,N,12721.6987955,E,1,05,1.0,33.246,M,0.000,M,0.0,*47
$GPGSA,A,3,02,08,16,26,27,,,,,,,,20.1,11.3,16.6,1*12
$GPGSV,2,1,05,02,24,178,43,08,69,255,46,16,50,062,46,26,23,093,46,1*61
$GPGSV,2,2,05,27,72,029,48,,,,,,,,,,,,,1*56
$GPRMC,092651.10,A,3622.5290187,N,12721.7111763,E,8.39,308.17,111125,0.0,E,A*33
$GPGGA,092651.10,3622.5290187,N,12721.7111763,E,1,05,1.0,74.101,M,0.000,M,0.0,*4B
$GPGSA,A,3,02,08,16,26,27,,,,,,,,20.1,11.3,16.6,1*12
$GPGSV,2,1,05,02,24,178,43,08,69,255,46,16,50,062,46,26,23,093,46,1*61
$GPGSV,2,2,05,27,72,029,48,,,,,,,,,,,,,1*56
$GPRMC,092651.20,A,3622.5321417,N,12721.7043074,E,1.69,308.17,111125,0.0,E,A*3C
$GPGGA,092651.20,3622.5321417,N,12721.7043074,E,1,05,1.0,57.975,M,0.000,M,0.0,*42
$GPGSA,A,3,02,08,16,26,27,,,,,,,,20.1,11.3,16.6,1*12
$GPGSV,2,1,05,02,24,178,43,08,69,255,46,16,50,062,46,26,23,093,46,1*61
$GPGSV,2,2,05,27,72,029,48,,,,,,,,,,,,,1*56
$GPRMC,092651.30,A,3622.5290178,N,12721.7084815,E,4.95,313.32,111125,0.0,E,A*35
$GPGGA,092651.30,3622.5290178,N,12721.7084815,E,1,05,1.0,70.942,M,0.000,M,0.0,*41
$GPGSA,A,3,02,08,16,26,27,,,,,,,,20.1,11.3,16.6,1*12
$GPGSV,2,1,05,02,24,178,43,08,69,255,46,16,50,062,46,26,23,093,45,1*62
$GPGSV,2,2,05,27,72,029,48,,,,,,,,,,,,,1*56
$GPRMC,092651.60,A,3622.5328093,N,12721.7063706,E,10.54,314.77,111125,0.0,E,A*0C
$GPGGA,092651.60,3622.5328093,N,12721.7063706,E,1,05,1.0,65.164,M,0.000,M,0.0,*4E
$GPGSA,A,3,02,08,16,26,27,,,,,,,,20.1,11.3,16.6,1*12
$GPGSV,2,1,05,02,24,178,43,08,69,255,46,16,50,062,46,26,23,093,45,1*62
$GPGSV,2,2,05,27,72,029,48,,,,,,,,,,,,,1*56
$GPRMC,092651.70,A,3622.5311451,N,12721.7103060,E,18.06,318.09,111125,0.0,E,A*07
$GPGGA,092651.70,3622.5311451,N,12721.7103060,E,1,05,1.0,68.906,M,0.000,M,0.0,*4E
$GPGSA,A,3,02,08,16,26,27,,,,,,,,20.1,11.3,16.6,1*12
$GPGSV,2,1,05,02,24,178,43,08,69,255,46,16,50,062,46,26,23,093,45,1*62
$GPGSV,2,2,05,27,72,029,48,,,,,,,,,,,,,1*56
$GPRMC,092651.80,A,3622.5346802,N,12721.7037428,E,23.69,136.84,111125,0.0,E,A*04
$GPGGA,092651.80,3622.5346802,N,12721.7037428,E,1,05,1.0,51.143,M,0.000,M,0.0,*44
$GPGSA,A,3,02,08,16,26,27,,,,,,,,20.1,11.3,16.6,1*12
$GPGSV,2,1,05,02,24,178,43,08,69,255,46,16,50,062,46,26,23,093,46,1*61
$GPGSV,2,2,05,27,72,029,48,,,,,,,,,,,,,1*56
$GPRMC,092652.20,A,3622.5231433,N,12721.7177360,E,14.29,141.00,111125,0.0,E,A*00
$GPGGA,092652.20,3622.5231433,N,12721.7177360,E,1,05,1.0,98.052,M,0.000,M,0.0,*48
$GPGSA,A,3,02,08,16,26,27,,,,,,,,20.1,11.3,16.6,1*12
$GPGSV,2,1,05,02,24,178,43,08,69,255,46,16,50,062,46,26,23,093,46,1*61
$GPGSV,2,2,05,27,72,029,48,,,,,,,,,,,,,1*56
$GPRMC,092652.30,A,3622.5256809,N,12721.7127470,E,5.43,147.99,111125,0.0,E,A*3C
$GPGGA,092652.30,3622.5256809,N,12721.7127470,E,1,05,1.0,83.040,M,0.000,M,0.0,*47
$GPGSA,A,3,02,08,16,26,27,,,,,,,,20.1,11.3,16.6,1*12
$GPGSV,2,1,05,02,24,178,43,08,69,255,46,16,50,062,46,26,23,093,46,1*61
$GPGSV,2,2,05,27,72,029,48,,,,,,,,,,,,,1*56
$GPRMC,092652.40,A,3622.5296269,N,12721.7083281,E,8.49,144.58,111125,0.0,E,A*35
$GPGGA,092652.40,3622.5296269,N,12721.7083281,E,1,05,1.0,75.877,M,0.000,M,0.0,*42
$GPGSA,A,3,02,08,16,26,27,,,,,,,,20.1,11.3,16.6,1*12
$GPGSV,2,1,05,02,24,178,44,08,69,255,46,16,50,062,46,26,23,093,46,1*66
$GPGSV,2,2,05,27,72,029,48,,,,,,,,,,,,,1*56
$GPRMC,092652.80,A,3622.5411476,N,12721.6942392,E,1.62,144.58,111125,0.0,E,A*3E
$GPGGA,092652.80,3622.5411476,N,12721.6942392,E,1,05,1.0,31.260,M,0.000,M,0.0,*45
$GPGSA,A,3,02,08,16,26,27,,,,,,,,20.1,11.3,16.6,1*12
$GPGSV,2,1,05,02,24,178,43,08,69,255,46,16,50,062,46,26,23,093,46,1*61
$GPGSV,2,2,05,27,72,029,48,,,,,,,,,,,,,1*56
$GPRMC,092652.90,A,3622.5267765,N,12721.7124383,E,10.88,142.75,111125,0.0,E,A*0D
$GPGGA,092652.90,3622.5267765,N,12721.7124383,E,1,05,1.0,85.984,M,0.000,M,0.0,*45
$GPGSA,A,3,02,08,16,26,27,,,,,,,,20.1,11.3,16.6,1*12
$GPGSV,2,1,05,02,24,178,44,08,69,255,46,16,50,062,46,26,23,093,46,1*66
$GPGSV,2,2,05,27,72,029,48,,,,,,,,,,,,,1*56
$GPRMC,092653.00,A,3622.5162340,N,12721.7234388,E,1.14,142.75,111125,0.0,E,A*3C
$GPGGA,092653.00,3622.5162340,N,12721.7234388,E,1,05,1.0,122.640,M,0.000,M,0.0,*7A
$GPGSA,A,3,02,08,16,26,27,,,,,,,,20.1,11.3,16.6,1*12
$GPGSV,2,1,05,02,24,178,44,08,69,255,46,16,50,062,46,26,23,093,46,1*66
$GPGSV,2,2,05,27,72,029,48,,,,,,,,,,,,,1*56
$GPRMC,092653.40,A,3622.5337529,N,12721.7021124,E,4.96,138.97,111125,0.0,E,A*3F
$GPGGA,092653.40,3622.5337529,N,12721.7021124,E,1,05,1.0,52.257,M,0.000,M,0.0,*43
$GPGSA,A,3,02,08,16,26,27,,,,,,,,20.1,11.3,16.6,1*12
$GPGSV,2,1,05,02,24,178,44,08,69,255,46,16,50,062,46,26,23,093,46,1*66
$GPGSV,2,2,05,27,72,029,48,,,,,,,,,,,,,1*56
$GPRMC,092653.50,A,3622.5192369,N,12721.7187641,E,9.67,309.87,111125,0.0,E,A*3A
$GPGGA,092653.50,3622.5192369,N,12721.7187641,E,1,05,1.0,105.528,M,0.000,M,0.0,*78
$GPGSA,A,3,02,08,16,26,27,,,,,,,,20.1,11.3,16.6,1*12
$GPGSV,2,1,05,02,24,178,43,08,69,255,46,16,50,062,46,26,23,093,46,1*61
$GPGSV,2,2,05,27,72,029,48,,,,,,,,,,,,,1*56
$GPRMC,092653.60,A,3622.5275221,N,12721.7111549,E,16.58,137.02,111125,0.0,E,A*0A
$GPGGA,092653.60,3622.5275221,N,12721.7111549,E,1,05,1.0,81.279,M,0.000,M,0.0,*46
$GPGSA,A,3,02,08,16,26,27,,,,,,,,20.1,11.3,16.6,1*12
$GPGSV,2,1,05,02,24,178,43,08,69,255,46,16,50,062,46,26,23,093,46,1*61
$GPGSV,2,2,05,27,72,029,48,,,,,,,,,,,,,1*56
$GPRMC,092654.00,A,3622.5263958,N,12721.7117158,E,1.88,137.02,111125,0.0,E,A*30
$GPGGA,092654.00,3622.5263958,N,12721.7117158,E,1,05,1.0,85.341,M,0.000,M,0.0,*49
$GPGSA,A,3,02,08,16,26,27,,,,,,,,20.1,11.3,16.6,1*12
$GPGSV,2,1,05,02,24,178,43,08,69,255,46,16,50,062,46,26,23,093,46,1*61
$GPGSV,2,2,05,27,72,029,47,,,,,,,,,,,,,1*59
$GPRMC,092654.10,A,3622.5300163,N,12721.7092019,E,1.94,137.02,111125,0.0,E,A*30
$GPGGA,092654.10,3622.5300163,N,12721.7092019,E,1,05,1.0,74.654,M,0.000,M,0.0,*4B
$GPGSA,A,3,02,08,16,26,27,,,,,,,,20.1,11.3,16.6,1*12
$GPGSV,2,1,05,02,24,178,43,08,69,255,46,16,50,062,46,26,23,093,46,1*61
$GPGSV,2,2,05,27,72,029,47,,,,,,,,,,,,,1*59
$GPRMC,092654.20,A,3622.5268953,N,12721.7142896,E,0.19,137.02,111125,0.0,E,A*30
$GPGGA,092654.20,3622.5268953,N,12721.7142896,E,1,05,1.0,88.669,M,0.000,M,0.0,*42
$GPGSA,A,3,02,08,16,26,27,,,,,,,,20.1,11.3,16.6,1*12
$GPGSV,2,1,05,02,24,178,43,08,69,255,46,16,50,062,46,26,23,093,46,1*61
$GPGSV,2,2,05,27,72,029,47,,,,,,,,,,,,,1*59
$GPRMC,092654.50,A,3622.5211253,N,12721.7194076,E,0.94,137.02,111125,0.0,E,A*3A
$GPGGA,092654.50,3622.5211253,N,12721.7194076,E,1,05,1.0,106.823,M,0.000,M,0.0,*7A
$GPGSA,A,3,02,08,16,26,27,,,,,,,,20.1,11.3,16.6,1*12
$GPGSV,2,1,05,02,24,178,43,08,69,255,46,16,50,062,46,26,23,093,46,1*61
$GPGSV,2,2,05,27,72,029,48,,,,,,,,,,,,,1*56
$GPRMC,092654.60,A,3622.5180548,N,12721.7199917,E,18.79,319.05,111125,0.0,E,A*0F
$GPGGA,092654.60,3622.5180548,N,12721.7199917,E,1,05,1.0,112.832,M,0.000,M,0.0,*79
$GPGSA,A,3,02,08,16,26,27,,,,,,,,20.1,11.3,16.6,1*12
$GPGSV,2,1,05,02,24,178,43,08,69,255,46,16,50,062,46,26,23,093,46,1*61
$GPGSV,2,2,05,27,72,029,47,,,,,,,,,,,,,1*59
$GPRMC,092654.70,A,3622.5178093,N,12721.7206475,E,13.49,133.23,111125,0.0,E,A*00
$GPGGA,092654.70,3622.5178093,N,12721.7206475,E,1,05,1.0,113.207,M,0.000,M,0.0,*7D
$GPGSA,A,3,02,08,16,26,27,,,,,,,,20.1,11.3,16.6,1*12
$GPGSV,2,1,05,02,24,178,43,08,69,255,46,16,50,062,46,26,23,093,45,1*62
$GPGSV,2,2,05,27,72,029,47,,,,,,,,,,,,,1*59
$GPRMC,092655.10,A,3622.5198016,N,12721.7225440,E,9.61,317.84,111125,0.0,E,A*3B
$GPGGA,092655.10,3622.5198016,N,12721.7225440,E,1,05,1.0,112.016,M,0.000,M,0.0,*7D
$GPGSA,A,3,02,08,16,26,27,,,,,,,,20.1,11.3,16.6,1*12
$GPGSV,2,1,05,02,24,178,43,08,69,255,46,16,50,062,45,26,23,093,45,1*61
$GPGSV,2,2,05,27,72,029,47,,,,,,,,,,,,,1*59
$GPRMC,092655.20,A,3622.5246707,N,12721.7179382,E,3.07,71.93,111125,0.0,E,A*03
$GPGGA,092655.20,3622.5246707,N,12721.7179382,E,1,05,1.0,95.522,M,0.000,M,0.0,*46
$GPGSA,A,3,02,08,16,26,27,,,,,,,,20.1,11.3,16.6,1*12
$GPGSV,2,1,05,02,24,178,44,08,69,255,46,16,50,062,46,26,23,093,45,1*65
$GPGSV,2,2,05,27,72,029,47,,,,,,,,,,,,,1*59
$GPRMC,092655.30,A,3622.5312293,N,12721.7094126,E,20.68,139.87,111125,0.0,E,A*04
$GPGGA,092655.30,3622.5312293,N,12721.7094126,E,1,05,1.0,73.241,M,0.000,M,0.0,*4B
$GPGSA,A,3,02,08,16,26,27,,,,,,,,20.1,11.3,16.6,1*12
$GPGSV,2,1,05,02,24,178,43,08,69,255,46,16,50,062,45,26,23,093,45,1*61
$GPGSV,2,2,05,27,72,029,47,,,,,,,,,,,,,1*59
$GPRMC,092655.70,A,3622.5215526,N,12721.7218321,E,19.09,320.92,111125,0.0,E,A*0F
$GPGGA,092655.70,3622.5215526,N,12721.7218321,E,1,05,1.0,110.783,M,0.000,M,0.0,*7C
$GPGSA,A,3,02,08,16,26,27,,,,,,,,20.1,11.3,16.6,1*12
$GPGSV,2,1,05,02,24,178,43,08,69,255,46,16,50,062,45,26,23,093,45,1*61
$GPGSV,2,2,05,27,72,029,48,,,,,,,,,,,,,1*56
$GPRMC,092655.80,A,3622.5277480,N,12721.7138386,E,2.36,315.45,111125,0.0,E,A*3F
$GPGGA,092655.80,3622.5277480,N,12721.7138386,E,1,05,1.0,85.175,M,0.000,M,0.0,*44
$GPGSA,A,3,02,08,16,26,27,,,,,,,,20.1,11.3,16.6,1*12
$GPGSV,2,1,05,02,24,178,44,08,69,255,46,16,50,062,45,26,23,093,45,1*66
$GPGSV,2,2,05,27,72,029,48,,,,,,,,,,,,,1*56
$GPRMC,092655.90,A,3622.5308458,N,12721.7102844,E,6.68,136.75,111125,0.0,E,A*31
$GPGGA,092655.90,3622.5308458,N,12721.7102844,E,1,05,1.0,73.079,M,0.000,M,0.0,*41
$GPGSA,A,3,02,08,16,26,27,,,,,,,,20.1,11.3,16.6,1*12
$GPGSV,2,1,05,02,24,178,43,08,69,255,46,16,50,062,45,26,23,093,46,1*62
$GPGSV,2,2,05,27,72,029,48,,,,,,,,,,,,,1*56
$GPRMC,092656.30,A,3622.5164555,N,12721.7262730,E,32.12,319.53,111125,0.0,E,A*04
$GPGGA,092656.30,3622.5164555,N,12721.7262730,E,1,05,1.0,127.502,M,0.000,M,0.0,*7C
$GPGSA,A,3,02,08,16,26,27,,,,,,,,20.1,11.3,16.6,1*12
$GPGSV,2,1,05,02,24,178,43,08,69,255,46,16,50,062,46,26,23,093,45,1*62
$GPGSV,2,2,05,27,72,029,48,,,,,,,,,,,,,1*56
$GPRMC,092656.40,A,3622.5228186,N,12721.7196107,E,1.57,319.53,111125,0.0,E,A*39
$GPGGA,092656.40,3622.5228186,N,12721.7196107,E,1,05,1.0,102.054,M,0.000,M,0.0,*71
$GPGSA,A,3,02,08,16,26,27,,,,,,,,20.1,11.3,16.6,1*12
$GPGSV,2,1,05,02,24,178,43,08,69,255,46,16,50,062,46,26,23,093,46,1*61
$GPGSV,2,2,05,27,72,029,48,,,,,,,,,,,,,1*56
$GPRMC,092656.50,A,3622.5108104,N,12721.7324348,E,19.08,315.33,111125,0.0,E,A*08
$GPGGA,092656.50,3622.5108104,N,12721.7324348,E,1,05,1.0,146.823,M,0.000,M,0.0,*71
$GPGSA,A,3,02,08,16,26,27,,,,,,,,20.1,11.3,16.6,1*12
$GPGSV,2,1,05,02,24,178,43,08,69,255,46,16,50,062,46,26,23,093,46,1*61
$GPGSV,2,2,05,27,72,029,48,,,,,,,,,,,,,1*56
$GPRMC,092656.90,A,3622.5166318,N,12721.7258749,E,4.92,305.78,111125,0.0,E,A*3D
$GPGGA,092656.90,3622.5166318,N,12721.7258749,E,1,05,1.0,124.773,M,0.000,M,0.0,*7B
$GPGSA,A,3,02,08,16,26,27,,,,,,,,20.1,11.3,16.6,1*12
$GPGSV,2,1,05,02,24,178,43,08,69,255,46,16,50,062,45,26,23,093,46,1*62
$GPGSV,2,2,05,27,72,029,48,,,,,,,,,,,,,1*56
$GPRMC,092657.00,A,3622.5181099,N,12721.7258066,E,14.84,138.79,111125,0.0,E,A*07
$GPGGA,092657.00,3622.5181099,N,12721.7258066,E,1,05,1.0,125.674,M,0.000,M,0.0,*7D
$GPGSA,A,3,02,08,16,26,27,,,,,,,,20.1,11.3,16.6,1*12
$GPGSV,2,1,05,02,24,178,43,08,69,255,46,16,50,062,45,26,23,093,46,1*62
$GPGSV,2,2,05,27,72,029,48,,,,,,,,,,,,,1*56
$GPRMC,092657.10,A,3622.5161922,N,12721.7278191,E,2.42,28.43,111125,0.0,E,A*0E
$GPGGA,092657.10,3622.5161922,N,12721.7278191,E,1,05,1.0,133.059,M,0.000,M,0.0,*7E
$GPGSA,A,3,02,08,16,26,27,,,,,,,,20.1,11.3,16.6,1*12
$GPGSV,2,1,05,02,24,178,43,08,69,255,46,16,50,062,45,26,23,093,46,1*62
$GPGSV,2,2,05,27,72,029,48,,,,,,,,,,,,,1*56
$GPRMC,092657.50,A,3622.5053926,N,12721.7386075,E,2.17,136.83,111125,0.0,E,A*37
$GPGGA,092657.50,3622.5053926,N,12721.7386075,E,1,05,1.0,169.194,M,0.000,M,0.0,*7A
$GPGSA,A,3,02,08,16,26,27,,,,,,,,20.1,11.3,16.6,1*12
$GPGSV,2,1,05,02,24,178,43,08,69,255,46,16,50,062,45,26,23,093,46,1*62
$GPGSV,2,2,05,27,72,029,48,,,,,,,,,,,,,1*56
$GPRMC,092657.60,A,3622.5120634,N,12721.7314531,E,5.29,133.84,111125,0.0,E,A*3B
$GPGGA,092657.60,3622.5120634,N,12721.7314531,E,1,05,1.0,145.734,M,0.000,M,0.0,*7C
$GPGSA,A,3,02,08,16,26,27,,,,,,,,20.1,11.3,16.6,1*12
$GPGSV,2,1,05,02,24,178,43,08,69,255,46,16,50,062,45,26,23,093,46,1*62
$GPGSV,2,2,05,27,72,029,48,,,,,,,,,,,,,1*56
$GPRMC,092657.70,A,3622.5129176,N,12721.7311427,E,11.22,137.59,111125,0.0,E,A*0B
$GPGGA,092657.70,3622.5129176,N,12721.7311427,E,1,05,1.0,140.885,M,0.000,M,0.0,*76
$GPGSA,A,3,02,08,16,26,27,,,,,,,,20.1,11.3,16.6,1*12
$GPGSV,2,1,05,02,24,178,43,08,69,255,46,16,50,062,45,26,23,093,46,1*62
$GPGSV,2,2,05,27,72,029,48,,,,,,,,,,,,,1*56
$GPRMC,092658.00,A,3622.5053883,N,12721.7378371,E,12.28,316.69,111125,0.0,E,A*0C
$GPGGA,092658.00,3622.5053883,N,12721.7378371,E,1,05,1.0,166.668,M,0.000,M,0.0,*73
$GPGSA,A,3,02,08,16,26,27,,,,,,,,20.1,11.3,16.6,1*12
$GPGSV,2,1,05,02,24,178,43,08,69,255,47,16,50,062,45,26,23,093,46,1*63
$GPGSV,2,2,05,27,72,029,48,,,,,,,,,,,,,1*56
$GPRMC,092658.10,A,3622.5013646,N,12721.7437374,E,19.53,321.28,111125,0.0,E,A*01
$GPGGA,092658.10,3622.5013646,N,12721.7437374,E,1,05,1.0,182.150,M,0.000,M,0.0,*7E
$GPGSA,A,3,02,08,16,26,27,,,,,,,,20.1,11.3,16.6,1*12
$GPGSV,2,1,05,02,24,178,42,08,69,255,46,16,50,062,45,26,23,093,46,1*63
$GPGSV,2,2,05,27,72,029,48,,,,,,,,,,,,,1*56
$GPRMC,092658.20,A,3622.5050198,N,12721.7416720,E,1.00,321.28,111125,0.0,E,A*38
$GPGGA,092658.20,3622.5050198,N,12721.7416720,E,1,05,1.0,175.294,M,0.000,M,0.0,*7B
$GPGSA,A,3,02,08,16,26,27,,,,,,,,20.1,11.3,16.6,1*12
$GPGSV,2,1,05,02,24,178,43,08,69,255,46,16,50,062,45,26,23,093,46,1*62
$GPGSV,2,2,05,27,72,029,48,,,,,,,,,,,,,1*56
$GPRMC,092658.30,A,3622.5069181,N,12721.7385926,E,12.49,143.56,111125,0.0,E,A*0E
$GPGGA,092658.30,3622.5069181,N,12721.7385926,E,1,05,1.0,169.800,M,0.000,M,0.0,*77
$GPGSA,A,3,02,08,16,26,27,,,,,,,,20.1,11.3,16.6,1*12
$GPGSV,2,1,05,02,24,178,43,08,69,255,46,16,50,062,45,26,23,093,46,1*62
$GPGSV,2,2,05,27,72,029,48,,,,,,,,,,,,,1*56
$GPRMC,092658.60,A,3622.4900099,N,12721.7571675,E,16.04,142.89,111125,0.0,E,A*0E
$GPGGA,092658.60,3622.4900099,N,12721.7571675,E,1,05,1.0,223.533,M,0.000,M,0.0,*79
$GPGSA,A,3,02,08,16,26,27,,,,,,,,20.1,11.3,16.6,1*12
$GPGSV,2,1,05,02,24,178,43,08,69,256,46,16,50,062,46,26,23,093,46,1*62
$GPGSV,2,2,05,27,72,029,48,,,,,,,,,,,,,1*56
$GPRMC,092658.70,A,3622.5029159,N,12721.7407019,E,1.37,142.89,111125,0.0,E,A*3B
$GPGGA,092658.70,3622.5029159,N,12721.7407019,E,1,05,1.0,174.643,M,0.000,M,0.0,*7F
$GPGSA,A,3,02,08,16,26,27,,,,,,,,20.1,11.3,16.6,1*12
$GPGSV,2,1,05,02,24,178,43,08,69,256,46,16,50,062,46,26,23,093,46,1*62
$GPGSV,2,2,05,27,72,029,48,,,,,,,,,,,,,1*56
$GPRMC,092658.80,A,3622.4992683,N,12721.7455987,E,6.06,139.78,111125,0.0,E,A*32
$GPGGA,092658.80,3622.4992683,N,12721.7455987,E,1,05,1.0,192.222,M,0.000,M,0.0,*7A
$GPGSA,A,3,02,08,16,26,27,,,,,,,,20.0,11.3,16.6,1*13
$GPGSV,2,1,05,02,24,178,43,08,69,256,46,16,50,062,46,26,23,093,46,1*62
$GPGSV,2,2,05,27,72,029,48,,,,,,,,,,,,,1*56
$GPRMC,092658.90,A,3622.4996405,N,12721.7460594,E,36.69,139.62,111125,0.0,E,A*02
$GPGGA,092658.90,3622.4996405,N,12721.7460594,E,1,05,1.0,195.876,M,0.000,M,0.0,*77
$GPGSA,A,3,02,08,16,26,27,,,,,,,,20.0,11.3,16.6,1*13
$GPGSV,2,1,05,02,24,178,43,08,69,256,46,16,50,062,46,26,23,093,46,1*62
$GPGSV,2,2,05,27,72,029,47,,,,,,,,,,,,,1*59
$GPRMC,092659.20,A,3622.4990956,N,12721.7458656,E,9.01,318.69,111125,0.0,E,A*3B
$GPGGA,092659.20,3622.4990956,N,12721.7458656,E,1,05,1.0,191.428,M,0.000,M,0.0,*75
$GPGSA,A,3,02,08,16,26,27,,,,,,,,20.0,11.3,16.6,1*13
$GPGSV,2,1,05,02,24,178,42,08,69,256,46,16,50,062,46,26,23,093,46,1*63
$GPGSV,2,2,05,27,72,029,47,,,,,,,,,,,,,1*59
$GPRMC,092659.30,A,3622.4927997,N,12721.7519007,E,13.77,317.56,111125,0.0,E,A*04
$GPGGA,092659.30,3622.4927997,N,12721.7519007,E,1,05,1.0,211.273,M,0.000,M,0.0,*70
$GPGSA,A,3,02,08,16,26,27,,,,,,,,20.0,11.3,16.6,1*13
$GPGSV,2,1,05,02,24,178,42,08,69,256,46,16,50,062,46,26,23,093,46,1*63
$GPGSV,2,2,05,27,72,029,47,,,,,,,,,,,,,1*59
$GPRMC,092659.40,A,3622.4852353,N,12721.7608954,E,13.70,317.92,111125,0.0,E,A*01
$GPGGA,092659.40,3622.4852353,N,12721.7608954,E,1,05,1.0,244.578,M,0.000,M,0.0,*76
$GPGSA,A,3,02,08,16,26,27,,,,,,,,20.0,11.3,16.6,1*13
$GPGSV,2,1,05,02,24,178,42,08,69,256,46,16,50,062,46,26,23,093,46,1*63
$GPGSV,2,2,05,27,72,029,47,,,,,,,,,,,,,1*59
$GPRMC,092659.80,A,3622.4886705,N,12721.7568965,E,15.01,313.93,111125,0.0,E,A*01
$GPGGA,092659.80,3622.4886705,N,12721.7568965,E,1,05,1.0,235.942,M,0.000,M,0.0,*70
$GPGSA,A,3,02,08,16,26,27,,,,,,,,20.0,11.3,16.6,1*13
$GPGSV,2,1,05,02,24,178,42,08,69,256,46,16,50,062,46,26,23,093,45,1*60
$GPGSV,2,2,05,27,72,029,48,,,,,,,,,,,,,1*56
$GPRMC,092659.90,A,3622.4877390,N,12721.7575460,E,12.79,312.45,111125,0.0,E,A*00
$GPGGA,092659.90,3622.4877390,N,12721.7575460,E,1,05,1.0,235.993,M,0.000,M,0.0,*7F
$GPGSA,A,3,02,08,16,26,27,,,,,,,,20.0,11.3,16.6,1*13
$GPGSV,2,1,05,02,24,178,42,08,69,256,47,16,50,062,46,26,23,093,45,1*61
$GPGSV,2,2,05,27,72,029,48,,,,,,,,,,,,,1*56
$GPRMC,092700.00,A,3622.4907006,N,12721.7555247,E,16.02,140.72,111125,0.0,E,A*06
$GPGGA,092700.00,3622.4907006,N,12721.7555247,E,1,05,1.0,227.743,M,0.000,M,0.0,*70
$GPGSA,A,3,02,08,16,26,27,,,,,,,,20.0,11.3,16.6,1*13
$GPGSV,2,1,05,02,24,178,42,08,69,256,47,16,50,062,46,26,23,093,46,1*62
$GPGSV,2,2,05,27,72,029,48,,,,,,,,,,,,,1*56
$GPRMC,092700.40,A,3622.4994578,N,12721.7451179,E,7.39,312.87,111125,0.0,E,A*38
$GPGGA,092700.40,3622.4994578,N,12721.7451179,E,1,05,1.0,193.850,M,0.000,M,0.0,*78
$GPGSA,A,3,02,08,16,26,27,,,,,,,,20.0,11.3,16.6,1*13
$GPGSV,2,1,05,02,24,178,42,08,69,256,46,16,50,062,46,26,23,093,46,1*63
$GPGSV,2,2,05,27,72,029,48,,,,,,,,,,,,,1*56
$GPRMC,092700.50,A,3622.5043743,N,12721.7399387,E,10.39,136.83,111125,0.0,E,A*07
$GPGGA,092700.50,3622.5043743,N,12721.7399387,E,1,05,1.0,179.989,M,0.000,M,0.0,*70
$GPGSA,A,3,02,08,16,26,27,,,,,,,,20.0,11.3,16.6,1*13
$GPGSV,2,1,05,02,24,178,42,08,69,256,46,16,50,062,46,26,23,093,46,1*63
$GPGSV,2,2,05,27,72,029,48,,,,,,,,,,,,,1*56
$GPRMC,092700.60,A,3622.5063074,N,12721.7361709,E,7.49,137.25,111125,0.0,E,A*3C
$GPGGA,092700.60,3622.5063074,N,12721.7361709,E,1,05,1.0,166.767,M,0.000,M,0.0,*77
$GPGSA,A,3,02,08,16,26,27,,,,,,,,20.0,11.3,16.6,1*13
$GPGSV,2,1,05,02,24,178,42,08,69,256,46,16,50,062,45,26,23,093,46,1*60
$GPGSV,2,2,05,27,72,029,48,,,,,,,,,,,,,1*56
$GPRMC,092701.00,A,3622.5084505,N,12721.7311892,E,5.09,145.93,111125,0.0,E,A*35
$GPGGA,092701.00,3622.5084505,N,12721.7311892,E,1,05,1.0,157.695,M,0.000,M,0.0,*7E
$GPGSA,A,3,02,08,16,26,27,,,,,,,,20.0,11.3,16.6,1*13
$GPGSV,2,1,05,02,24,178,42,08,69,256,46,16,50,062,46,26,23,093,46,1*63
$GPGSV,2,2,05,27,72,029,47,,,,,,,,,,,,,1*59
$GPRMC,092701.10,A,3622.5090378,N,12721.7326383,E,4.37,142.90,111125,0.0,E,A*3A
$GPGGA,092701.10,3622.5090378,N,12721.7326383,E,1,05,1.0,157.461,M,0.000,M,0.0,*70
$GPGSA,A,3,02,08,16,26,27,,,,,,,,20.0,11.3,16.6,1*13
$GPGSV,2,1,05,02,24,178,42,08,69,256,46,16,50,062,46,26,23,093,46,1*63
$GPGSV,2,2,05,27,72,029,47,,,,,,,,,,,,,1*59
$GPRMC,092701.20,A,3622.4980052,N,12721.7452313,E,1.67,142.90,111125,0.0,E,A*36
$GPGGA,092701.20,3622.4980052,N,12721.7452313,E,1,05,1.0,191.912,M,0.000,M,0.0,*7F
$GPGSA,A,3,02,08,16,26,27,,,,,,,,20.0,11.3,16.6,1*13
$GPGSV,2,1,05,02,24,178,42,08,69,256,46,16,50,062,46,26,23,093,46,1*63
$GPGSV,2,2,05,27,72,029,47,,,,,,,,,,,,,1*59
$GPRMC,092701.60,A,3622.5000601,N,12721.7454494,E,0.69,142.90,111125,0.0,E,A*33
$GPGGA,092701.60,3622.5000601,N,12721.7454494,E,1,05,1.0,193.132,M,0.000,M,0.0,*7D
$GPGSA,A,3,02,08,16,26,27,,,,,,,,20.0,11.3,16.6,1*13
$GPGSV,2,1,05,02,24,178,42,08,69,256,47,16,50,062,46,26,23,093,46,1*62
$GPGSV,2,2,05,27,72,029,48,,,,,,,,,,,,,1*56
$GPRMC,092701.70,A,3622.5058423,N,12721.7363762,E,8.92,318.13,111125,0.0,E,A*3E
$GPGGA,092701.70,3622.5058423,N,12721.7363762,E,1,05,1.0,169.403,M,0.000,M,0.0,*78
$GPGSA,A,3,02,08,16,26,27,,,,,,,,20.0,11.3,16.6,1*13
$GPGSV,2,1,05,02,24,178,42,08,69,256,46,16,50,062,46,26,23,093,45,1*60
$GPGSV,2,2,05,27,72,029,48,,,,,,,,,,,,,1*56
$GPRMC,092701.80,A,3622.5040724,N,12721.7364115,E,4.16,166.51,111125,0.0,E,A*30
$GPGGA,092701.80,3622.5040724,N,12721.7364115,E,1,05,1.0,171.948,M,0.000,M,0.0,*70
$GPGSA,A,3,02,08,16,26,27,,,,,,,,20.0,11.3,16.6,1*13
$GPGSV,2,1,05,02,24,178,42,08,69,256,46,16,50,062,46,26,23,093,45,1*60
$GPGSV,2,2,05,27,72,029,48,,,,,,,,,,,,,1*56
