{
  "type":  "Feature",
  "properties": {
       "name": "Locations generated by GNSS-SDR" 
   },
  "geometry": {
      "type": "MultiPoint",
      "coordinates": [
       [127.36190999038473, 36.37542995994729, 76.74916084297001],
       [127.36189945815389, 36.37542110108465, 78.16346188448370],
       [127.36192101926223, 36.37543717799438, 80.28325941041112],
       [127.36192304343636, 36.37544230948588, 86.84299964364618],
       [127.36191846323686, 36.37543216663634, 78.93278660438955],
       [127.36191142895630, 36.37542850398589, 73.95630743913352],
       [127.36191899055883, 36.37544521697014, 75.14343381766230],
       [127.36190849303570, 36.37543377302022, 79.79803363140672],
       [127.36192580679440, 36.37543105998642, 77.34567561373115],
       [127.36191253617113, 36.37543460853600, 79.45349238440394],
       [127.36189906719144, 36.37542451527180, 83.36316827498376],
       [127.36190300973395, 36.37543428126937, 83.08395984116942],
       [127.36189895756142, 36.37542676071926, 83.02956879511476],
       [127.36191092438162, 36.37543271229671, 84.16622333694249],
       [127.36192294476955, 36.37543855194579, 88.25709886848927],
       [127.36193286324513, 36.37543965443597, 80.94950770214200],
       [127.36193038025992, 36.37543380051511, 80.73300967179239],
       [127.36192198129730, 36.37544983940655, 80.72538786660880],
       [127.36192130754529, 36.37545055898042, 81.45536003913730],
       [127.36189897309728, 36.37544004947090, 84.35786829143763],
       [127.36190594192144, 36.37543177607488, 85.09642818942666],
       [127.36190713265472, 36.37541192255385, 90.83449861593544],
       [127.36189991989984, 36.37539974809566, 92.12084384169430],
       [127.36191675890881, 36.37540493203342, 92.86640982981771],
       [127.36191444139965, 36.37540991393698, 99.53948052879423],
       [127.36190381608306, 36.37542059448009, 99.03318378329277],
       [127.36192006835977, 36.37542366682046, 91.68231366015971],
       [127.36190724069925, 36.37541309318384, 86.45769111625850],
       [127.36189379084237, 36.37540697227828, 90.21834341902286],
       [127.36190648860246, 36.37540217006499, 98.87202968727797],
       [127.36190232846950, 36.37539080456875, 95.92929396778345],
       [127.36191245971474, 36.37539920021150, 97.68730474263430],
       [127.36190097834742, 36.37540842111495, 96.94982788152993],
       [127.36190708064474, 36.37538577642703, 104.37707567680627],
       [127.36191385813665, 36.37538900741484, 101.05853116232902],
       [127.36191106537352, 36.37541170040785, 101.52134474087507],
       [127.36191560807764, 36.37543068073010, 98.91800596844405],
       [127.36189388614153, 36.37540001934152, 96.53145454823971],
       [127.36190477313301, 36.37540311582519, 96.22364565916359],
       [127.36188956825802, 36.37539421868708, 96.65917881205678],
       [127.36189428024228, 36.37538234862651, 100.49437394645065],
       [127.36191121040339, 36.37539206053886, 101.82711976394057],
       [127.36189643087268, 36.37539938334482, 95.70021746214479],
       [127.36190905320160, 36.37540467720976, 95.44084335584193],
       [127.36191420013783, 36.37540336958055, 94.93845508620143],
       [127.36190254681119, 36.37541484242643, 103.00027945730835],
       [127.36191935494440, 36.37540651830793, 98.96472323127091],
       [127.36193142889944, 36.37540666572183, 102.94372576568276],
       [127.36192668231459, 36.37541342970576, 96.54980437178165],
       [127.36192122146714, 36.37541649528779, 92.47813966684043],
       [127.36190779178067, 36.37542572911692, 95.72921744175255],
       [127.36191131369512, 36.37544272965764, 100.26884696912020],
       [127.36191862024764, 36.37542245642693, 105.67080495133996],
       [127.36190986484873, 36.37540882139216, 101.51479504350573],
       [127.36190091704032, 36.37542226994598, 101.35006632469594],
       [127.36190284657748, 36.37541053455624, 100.53706246055663],
       [127.36191437036412, 36.37540676411309, 105.88886790256947],
       [127.36192141873997, 36.37541178929341, 106.22487926203758],
       [127.36192012077252, 36.37539618683575, 105.84899600595236],
       [127.36189701761295, 36.37540222238087, 102.52257579658180],
       [127.36190958086287, 36.37541220040915, 99.12485007382929],
       [127.36188841783246, 36.37540915307684, 94.65647944062948],
       [127.36192738969321, 36.37542095370492, 92.44719467218965],
       [127.36191654834249, 36.37541668196474, 97.21509689278901],
       [127.36189832115024, 36.37541537405837, 98.82859838567674],
       [127.36191092875795, 36.37540698381290, 98.11106101796031],
       [127.36193654023980, 36.37541437707650, 108.25223734602332],
       [127.36193860033315, 36.37540602937746, 106.19102027267218],
       [127.36192113670727, 36.37539154483843, 105.59242530819029],
       [127.36190183787613, 36.37537621880767, 106.31172350700945],
       [127.36190269068628, 36.37538053304928, 97.09101022314280],
       [127.36190757843080, 36.37539723122529, 99.21359385736287],
       [127.36190922912330, 36.37539047917854, 106.66796601470560],
       [127.36190201501944, 36.37539639184611, 101.50633094180375],
       [127.36188654076398, 36.37539231314852, 105.85105270333588],
       [127.36188570933678, 36.37539294404075, 112.15169943962246],
       [127.36187993367449, 36.37540380918482, 109.63749089837074],
       [127.36189778448023, 36.37538754896525, 101.68023717124015],
       [127.36190069293477, 36.37538232232250, 93.85411681607366],
       [127.36188910851826, 36.37539540448363, 91.46163534559309],
       [127.36188978171678, 36.37538364893868, 97.78285652771592],
       [127.36189522482802, 36.37537362674728, 92.18540090508759],
       [127.36189640785018, 36.37540765347763, 95.18077723495662],
       [127.36188023034983, 36.37540410766382, 95.39148359745741],
       [127.36188440999908, 36.37541668668734, 100.32392696291208],
       [127.36187579803378, 36.37542487768052, 96.31763808056712],
       [127.36186918839695, 36.37541735046963, 96.94858062546700],
       [127.36188904092255, 36.37539513646890, 102.11937967315316],
       [127.36187922436069, 36.37540937751135, 100.73610542155802],
       [127.36188603834246, 36.37541293374947, 92.01076111942530],
       [127.36190699343116, 36.37542402921366, 93.76445807423443],
       [127.36189489174730, 36.37541218147412, 97.01755243726075],
       [127.36189059365473, 36.37541894800931, 97.99201800115407],
       [127.36188779776657, 36.37541284014742, 97.08853188529611],
       [127.36188869363208, 36.37540067405077, 99.59349661320448],
       [127.36187213268769, 36.37539984490138, 106.99519055522978],
       [127.36188189457016, 36.37540585394304, 98.23252066038549],
       [127.36188408110057, 36.37540881084249, 103.63731084298342],
       [127.36187339732841, 36.37539206912547, 104.67957956902683],
       [127.36186938789523, 36.37538904144014, 104.81173770036548],
       [127.36189741506229, 36.37540756174813, 101.60749872215092],
       [127.36190572202788, 36.37539565987118, 91.99280427955091],
       [127.36189457060293, 36.37539936555932, 101.38557975646108],
       [127.36188619690077, 36.37542344812637, 103.65431447699666],
       [127.36189791009126, 36.37541547969020, 108.02192231453955],
       [127.36189300069664, 36.37541021239890, 102.74921061843634],
       [127.36188878430909, 36.37540942726222, 95.57086077146232],
       [127.36187261839508, 36.37539712456403, 100.21084086317569],
       [127.36188443210993, 36.37539957525239, 99.23363064881414],
       [127.36188241969727, 36.37540755597293, 110.54447501432151],
       [127.36187975565370, 36.37541237824877, 102.66939347982407],
       [127.36187836791233, 36.37538814216874, 106.92672858946025],
       [127.36190039298371, 36.37540220984278, 103.47361805383116],
       [127.36190736066065, 36.37540943646497, 100.38773259799927],
       [127.36189842571281, 36.37540911531305, 101.37083216104656],
       [127.36188699903931, 36.37541274943867, 101.49511965829879],
       [127.36187059159256, 36.37543050895919, 104.75121245533228],
       [127.36189070915523, 36.37541853626839, 102.16236953437328],
       [127.36188304290624, 36.37540706672744, 109.23754465300590],
       [127.36187535231177, 36.37541573187890, 117.77354250010103],
       [127.36187522407194, 36.37539717303734, 110.00723253469914],
       [127.36188031160020, 36.37540477579134, 109.16399918124080],
       [127.36189478590661, 36.37536606514231, 109.59889254905283],
       [127.36188499611487, 36.37538561627760, 109.12323564756662],
       [127.36189379934031, 36.37539616408019, 107.27530227228999],
       [127.36186843371081, 36.37542568195157, 112.09237841796130],
       [127.36187437560712, 36.37541626290034, 107.57750776223838],
       [127.36187252812664, 36.37538596880938, 108.88286146800965],
       [127.36188266096777, 36.37540462124638, 114.58222580421716],
       [127.36189623414623, 36.37538029578682, 115.53867689240724],
       [127.36190513201024, 36.37538164172710, 108.51301696244627],
       [127.36190201903054, 36.37538399981732, 102.96628347411752],
       [127.36189427760669, 36.37538119575603, 106.88829425536096],
       [127.36188822489054, 36.37538157144159, 107.76359138544649],
       [127.36189361957469, 36.37536860263056, 115.97481838427484],
       [127.36188842411563, 36.37536671579568, 110.45850583910942],
       [127.36190395583665, 36.37537912510408, 99.66961586847901],
       [127.36189773394064, 36.37539873469044, 108.38581668026745],
       [127.36191030507700, 36.37540039820096, 99.77049108594656],
       [127.36190111126919, 36.37539274329859, 100.84360461495817],
       [127.36189273001533, 36.37538621591044, 96.15440492238849],
       [127.36190279816194, 36.37538306927582, 102.44311544951051],
       [127.36190523229816, 36.37539914284503, 95.29359867610037],
       [127.36190247789020, 36.37539785047291, 98.14348935149610],
       [127.36191008493466, 36.37540494547733, 91.77337675169110],
       [127.36191523308794, 36.37541463990874, 97.35366538632661],
       [127.36193073669642, 36.37540911270575, 93.26005405839533],
       [127.36192865216368, 36.37539372258127, 93.47262393869460],
       [127.36192657840694, 36.37539970789682, 92.99452687241137],
       [127.36192020195428, 36.37540596072780, 89.13093116972595],
       [127.36191993866129, 36.37540642880867, 93.15461527276784],
       [127.36193441882519, 36.37539911938561, 87.07832437660545],
       [127.36193531367391, 36.37540179512915, 84.35945137031376],
       [127.36195070165481, 36.37537063173183, 82.23520741704851],
       [127.36193503730200, 36.37540712160595, 84.91769127547741],
       [127.36193281475472, 36.37540966974498, 85.39728432986885],
       [127.36191774884389, 36.37542063656211, 85.54535621218383],
       [127.36192625215052, 36.37540019474811, 86.61546138580889],
       [127.36192136807956, 36.37537990657246, 89.51472978480160],
       [127.36193733941967, 36.37536970572631, 89.77627146244049],
       [127.36192640520065, 36.37538384667845, 83.16058918368071],
       [127.36193541219218, 36.37540267946059, 78.37108118738979],
       [127.36195531566230, 36.37538711548931, 74.23528031352907],
       [127.36193440887557, 36.37539656819936, 81.11118754185736],
       [127.36194272701368, 36.37537962084627, 82.86251530982554],
       [127.36193705433544, 36.37536511603783, 83.37431907281280],
       [127.36194678925317, 36.37538041567409, 78.62882829084992],
       [127.36195539443881, 36.37538150575418, 73.72433840017766],
       [127.36195591241008, 36.37535715634787, 79.78112886752933],
       [127.36193435456752, 36.37538343528685, 84.46077187824994],
       [127.36193182015190, 36.37538442281105, 76.35956079326570],
       [127.36194883572487, 36.37537674477171, 79.36359674576670],
       [127.36193454187726, 36.37537345153768, 77.19483754038811],
       [127.36193346759848, 36.37539137992008, 83.80657272972167],
       [127.36196473905029, 36.37539464027361, 73.92434297688305],
       [127.36196375585170, 36.37540897639894, 82.03636725433171],
       [127.36193765864260, 36.37540587345816, 85.12911546509713],
       [127.36194345017483, 36.37540447571215, 81.17891891859472],
       [127.36197120287270, 36.37539678630798, 75.78219200018793],
       [127.36198050668582, 36.37540625565026, 72.57210017275065],
       [127.36196091431495, 36.37538508334735, 78.85948891844600],
       [127.36194943502588, 36.37538843793435, 79.81799961067736],
       [127.36194814037137, 36.37538148039938, 76.74004845693707],
       [127.36196516291389, 36.37536712882843, 73.16625235229731],
       [127.36196743822396, 36.37538574053168, 75.99028894491494],
       [127.36195132580357, 36.37540211570795, 73.29461395274848],
       [127.36195575444636, 36.37539331132589, 74.50584187265486],
       [127.36194440337088, 36.37538612953933, 76.89531307388097],
       [127.36196066965955, 36.37538426546868, 77.44919426087290],
       [127.36195273605200, 36.37539002088938, 74.28841911256313],
       [127.36198055430970, 36.37535335062376, 76.20777252409607],
       [127.36197594414726, 36.37536906544301, 73.31187165249139],
       [127.36197571293468, 36.37537619726329, 75.13968983106315],
       [127.36195376929348, 36.37537149231284, 77.20321000367403],
       [127.36197309765748, 36.37537506188918, 72.96713741496205],
       [127.36196822526126, 36.37537579744077, 75.00055343005806],
       [127.36195808930849, 36.37537866885113, 78.90782943181694],
       [127.36195169438062, 36.37539686151032, 71.81205132137984],
       [127.36195027269810, 36.37540477602097, 74.76394571922719],
       [127.36194959952424, 36.37539138474714, 80.51681793760508],
       [127.36196872452619, 36.37537268450297, 77.67872069962323],
       [127.36199297465544, 36.37538173915375, 72.48748675361276],
       [127.36198463081081, 36.37536606451038, 72.68766389694065],
       [127.36197081070500, 36.37537762600010, 74.48848992399871],
       [127.36196123210317, 36.37536963926927, 71.63350539002568],
       [127.36197016012967, 36.37536990259718, 69.65616906713694],
       [127.36196635965855, 36.37535545633694, 69.70523044839501],
       [127.36196195711318, 36.37536626908950, 70.87564700935036],
       [127.36194744492799, 36.37536048262326, 73.04807807411999],
       [127.36196655423839, 36.37535804753789, 71.52952460292727],
       [127.36194865072984, 36.37537801251390, 66.32487745210528],
       [127.36194326820606, 36.37537844979727, 75.16710376739502],
       [127.36194498664881, 36.37536653944832, 75.97533888276666],
       [127.36195947231465, 36.37537124743507, 74.80125814303756],
       [127.36196369593000, 36.37537173772697, 78.69494124129415],
       [127.36194904502479, 36.37536228209556, 75.82995325326920],
       [127.36194835740498, 36.37538438548161, 78.77273219637573],
       [127.36195914878103, 36.37539706244095, 80.08904839586467],
       [127.36194708978755, 36.37540115582360, 78.11040027998388],
       [127.36193903790546, 36.37538872085615, 78.14597890712321],
       [127.36194238260124, 36.37540250535940, 82.14160413201898],
       [127.36193747883262, 36.37538918063856, 73.25800106488168],
       [127.36196370072852, 36.37538471522871, 75.52869373094290],
       [127.36196281690573, 36.37538753194804, 76.75086313113570],
       [127.36194499377977, 36.37538658400512, 76.51060266513377],
       [127.36193695564708, 36.37539183900471, 79.57899269927293],
       [127.36193558472561, 36.37537015821599, 74.68094192631543],
       [127.36193838569835, 36.37537841987751, 78.01889859326184],
       [127.36194893449104, 36.37539371532558, 81.79089214559644],
       [127.36194945809667, 36.37537803930425, 79.38308574445546],
       [127.36195332799257, 36.37536007969378, 77.13475294038653],
       [127.36193810819478, 36.37539369920348, 82.69382970407605],
       [127.36194195176638, 36.37540509575999, 83.15780604630709],
       [127.36193137694951, 36.37539474848777, 85.02630531322211],
       [127.36195672017438, 36.37537123122237, 80.66835136339068],
       [127.36193491506850, 36.37537633674140, 77.45094652101398],
       [127.36192608331264, 36.37541413970024, 83.07673782948405],
       [127.36194626961229, 36.37538326658411, 79.80004672706127],
       [127.36193977702645, 36.37538667771742, 86.72086375392973],
       [127.36194446865277, 36.37539286085462, 88.43670287448913],
       [127.36193888557666, 36.37540941472098, 89.16684098355472],
       [127.36193538101206, 36.37537852388233, 86.98101215530187],
       [127.36193883253748, 36.37535039893204, 83.41922570485622],
       [127.36193477797055, 36.37534006199013, 87.13200428243726],
       [127.36191587324669, 36.37535860054619, 83.32325351703912],
       [127.36191584623471, 36.37537380580500, 82.21136110834777],
       [127.36193368236243, 36.37535900055461, 83.20551227778196],
       [127.36194426235402, 36.37539617572000, 88.71876574121416],
       [127.36195207394003, 36.37538711652418, 91.89297842420638],
       [127.36194253774188, 36.37536854417937, 90.65571248531342],
       [127.36194141843447, 36.37537424671375, 89.72011410817504],
       [127.36195155184338, 36.37538614814328, 83.31068157590926],
       [127.36194774683193, 36.37539506304447, 81.81471274234354],
       [127.36195525654767, 36.37538970725751, 81.52093100734055],
       [127.36193946473692, 36.37537064250634, 93.55169157311320],
       [127.36193902270043, 36.37536670240917, 97.80090221483260],
       [127.36195253950072, 36.37535722729964, 87.61863426119089],
       [127.36193374291123, 36.37537366599970, 90.65857770387083],
       [127.36193162785852, 36.37537859520368, 93.72605953738093],
       [127.36194680324816, 36.37537896831343, 91.93782806862146],
       [127.36193780520964, 36.37539141553307, 96.06324267201126],
       [127.36193087735549, 36.37538146766072, 97.56203648634255],
       [127.36195249175087, 36.37538204804039, 95.91291993856430],
       [127.36194145235342, 36.37538544887705, 94.07279978785664],
       [127.36193411427276, 36.37539973578161, 89.53004340361804],
       [127.36193792572374, 36.37538106051657, 96.58615146856755],
       [127.36194215453301, 36.37539680734061, 103.52048909198493],
       [127.36194180891346, 36.37538122722782, 99.44404161348939],
       [127.36197148174622, 36.37538547752213, 91.92215387709439],
       [127.36194870439770, 36.37539716154233, 96.25439590588212],
       [127.36193792018469, 36.37539182945375, 97.14182611368597],
       [127.36196174050247, 36.37539582586920, 101.63677336461842],
       [127.36195889131474, 36.37539878379910, 101.17060843762010],
       [127.36196935306586, 36.37536723986314, 103.87024865020066],
       [127.36195124599001, 36.37538011759229, 97.60609845165163],
       [127.36194410041811, 36.37541737412635, 91.50929625146091],
       [127.36195150796178, 36.37540226160019, 90.56890092231333],
       [127.36196133075434, 36.37538845345870, 97.83555268775672],
       [127.36196850637258, 36.37538908520954, 95.16416083369404],
       [127.36198004127918, 36.37538355733790, 91.72520793881267],
       [127.36196592841243, 36.37538957663325, 90.39241834357381],
       [127.36195745464020, 36.37541982608882, 91.75133776385337],
       [127.36195021062944, 36.37541506456391, 90.30520147737116],
       [127.36196277338183, 36.37538919862381, 91.49888577125967],
       [127.36195897021095, 36.37539496723788, 90.36546641774476],
       [127.36197335288634, 36.37537636109129, 94.76317954622209],
       [127.36196982946289, 36.37537292027052, 94.75628518685699],
       [127.36197539137703, 36.37539112631826, 81.91950425598770],
       [127.36196574173348, 36.37539221183682, 92.38310578465462],
       [127.36196168737064, 36.37537553386018, 96.11948919203132],
       [127.36196945401109, 36.37537804798909, 102.12671783752739],
       [127.36196838324591, 36.37540038537148, 95.68071571551263],
       [127.36196445225622, 36.37539843135967, 93.12442743126303],
       [127.36199361611932, 36.37538835792961, 90.10686003789306],
       [127.36198201995477, 36.37539596793950, 91.89191133808345],
       [127.36198959488023, 36.37538876782322, 90.43449819274247],
       [127.36199143545831, 36.37538346875858, 89.93424175865948],
       [127.36196426679426, 36.37536156298797, 96.54281156137586],
       [127.36197719207598, 36.37536733610817, 97.92565382085741],
       [127.36197766285250, 36.37537495704437, 96.93411132507026],
       [127.36197816680416, 36.37538819543310, 92.18039990402758],
       [127.36197376854712, 36.37536952990467, 92.55641136132181],
       [127.36196149218634, 36.37539439745272, 91.76092011015862],
       [127.36196253703450, 36.37540530092087, 86.77956714201719],
       [127.36195723089851, 36.37538681133299, 88.77381729893386],
       [127.36195760512902, 36.37537773465743, 94.84474749211222],
       [127.36195573279555, 36.37539149962988, 89.14597750827670],
       [127.36196165754949, 36.37540979985469, 85.63276609219611],
       [127.36195315064394, 36.37539270412256, 89.79525311943144],
       [127.36196035298931, 36.37540235503162, 95.34377640485764],
       [127.36197500461800, 36.37539793066269, 99.07308192737401],
       [127.36196324740661, 36.37539154578438, 94.65422799438238],
       [127.36197579530933, 36.37539636126472, 94.81735549215227],
       [127.36195732880013, 36.37538941477474, 91.20276132691652],
       [127.36196674067043, 36.37537160902689, 92.67276359535754],
       [127.36197401731238, 36.37539081794667, 99.84191188868135],
       [127.36195706407153, 36.37537588063800, 90.04393869731575],
       [127.36195920940347, 36.37539317912258, 86.55888716876507],
       [127.36195456793614, 36.37540224991681, 84.11747905425727],
       [127.36195343983000, 36.37541179558036, 90.95699843019247],
       [127.36195447954131, 36.37538150220004, 90.70425080880523],
       [127.36196634670334, 36.37539437154444, 91.75174266938120],
       [127.36195501550426, 36.37539032134892, 86.62233819533139],
       [127.36196041286226, 36.37536925764850, 86.24957155343145],
       [127.36194309685030, 36.37541651977938, 90.90507753845304],
       [127.36195558949251, 36.37541279201000, 92.67770968098193],
       [127.36194602241919, 36.37540743223780, 88.63470009900630],
       [127.36194285503481, 36.37540559711702, 96.89363431558013],
       [127.36196515299757, 36.37540862941562, 92.64271091856062],
       [127.36194600370784, 36.37540933445087, 91.67184216901660],
       [127.36193316593730, 36.37537815240605, 91.98056884761900],
       [127.36194602558140, 36.37538579902460, 92.66889405250549],
       [127.36195536573469, 36.37540809876408, 91.59738206584007],
       [127.36194721557823, 36.37540290879771, 94.38759793527424],
       [127.36195742229992, 36.37542238225416, 95.64390114881098],
       [127.36195450225358, 36.37540899834767, 93.44768735673279],
       [127.36194617134386, 36.37540626002841, 101.13899495545775],
       [127.36194707057427, 36.37540308132894, 96.45321869850159],
       [127.36193159884114, 36.37539875700654, 97.89714743476361],
       [127.36193655346339, 36.37540926462905, 95.81773448362947],
       [127.36195039299645, 36.37541328888581, 97.79558501485735],
       [127.36194584119200, 36.37540421102621, 94.50593904126436],
       [127.36194570260641, 36.37541386864375, 95.88830763660371],
       [127.36194883490995, 36.37540785986949, 98.51827394496650],
       [127.36195927013242, 36.37538483517005, 100.13205929193646],
       [127.36198047596022, 36.37539496125117, 96.24864022899419],
       [127.36197400095590, 36.37540678341590, 95.62475966941565],
       [127.36195879943735, 36.37539315897357, 99.20789478439838],
       [127.36193218335157, 36.37540793077061, 102.76162045169622],
       [127.36193202004193, 36.37538498129835, 100.71270779985934],
       [127.36194912644918, 36.37539519226174, 100.48711492214352],
       [127.36196529544284, 36.37536596669084, 101.42175817396492],
       [127.36196087846103, 36.37539274920607, 100.32120787352324],
       [127.36195437210324, 36.37540613473340, 96.84377984981984],
       [127.36193872500529, 36.37540628361906, 98.60339500010014],
       [127.36192296009241, 36.37541325006781, 104.58734857197851],
       [127.36193840546707, 36.37540176292762, 104.89785504713655],
       [127.36195173198468, 36.37540844191840, 103.68802392296493],
       [127.36194817556350, 36.37540914600974, 98.92367777135223],
       [127.36196961070758, 36.37539948703559, 102.10779061075300],
       [127.36196239284320, 36.37538055294985, 99.11113281548023],
       [127.36195690989744, 36.37539079672462, 97.51782847195864],
       [127.36194477918286, 36.37538971559015, 98.88385506253690],
       [127.36195680601045, 36.37541564874210, 107.41776524763554],
       [127.36195573802736, 36.37541944473583, 105.44483550451696],
       [127.36194562131263, 36.37542467598356, 102.93372153211385],
       [127.36194514328182, 36.37541048252223, 101.88704823981971],
       [127.36195841030106, 36.37540130030572, 106.99094136431813],
       [127.36192934406763, 36.37540004763840, 104.29445552639663],
       [127.36194607574740, 36.37540269150968, 101.57135005481541],
       [127.36193796349994, 36.37541281078131, 104.00661473628134],
       [127.36193683134776, 36.37541457373809, 103.57077382411808],
       [127.36193675363108, 36.37540839527922, 99.54661441873759],
       [127.36192784783834, 36.37538782861900, 97.72032357193530],
       [127.36193938796677, 36.37538928694273, 97.76965810637921],
       [127.36194333078663, 36.37537191435850, 97.53431016113609],
       [127.36196146329196, 36.37538036682174, 94.50722372718155],
       [127.36196882964609, 36.37537331644749, 90.00596901029348],
       [127.36196781766483, 36.37536619606922, 93.35974530875683],
       [127.36195830986223, 36.37536763420778, 94.54341460391879],
       [127.36195358506393, 36.37537986209373, 98.10953488107771],
       [127.36196578467724, 36.37535828960474, 95.37007333245128],
       [127.36197983339611, 36.37535367157204, 97.69348350074142],
       [127.36196990545763, 36.37536064503047, 100.45200867671520],
       [127.36195936936427, 36.37536456023454, 97.39744113478810],
       [127.36196550268920, 36.37538134333909, 90.99022896401584],
       [127.36196765662511, 36.37537428674869, 92.00187396816909],
       [127.36197466330127, 36.37534276288767, 91.59135746210814],
       [127.36196379048090, 36.37533952335718, 92.21355105191469],
       [127.36197630297666, 36.37533338317010, 89.95980639755726],
       [127.36196446311772, 36.37534807877697, 89.61381286289543],
       [127.36196559218062, 36.37534264211201, 87.27935960702598],
       [127.36196637005713, 36.37534784813392, 86.89806151017547],
       [127.36198210503579, 36.37535175722765, 87.37675166316330],
       [127.36197271644647, 36.37534284320369, 90.11289307661355],
       [127.36197052907279, 36.37535008883359, 90.96418932452798],
       [127.36197745974286, 36.37535278986498, 89.87850332446396],
       [127.36196370582998, 36.37536840370934, 87.50360629241914],
       [127.36196084612561, 36.37537917342412, 90.81906023249030],
       [127.36198918439470, 36.37534847885048, 89.72277831099927],
       [127.36198403473878, 36.37535241548643, 89.00626975391060],
       [127.36196727266962, 36.37537394573452, 91.64280913956463],
       [127.36195492543577, 36.37536327915721, 97.22677016817033],
       [127.36196512412191, 36.37535507662560, 96.12345500197262],
       [127.36197380413896, 36.37533849223753, 87.06642447505146],
       [127.36197665455323, 36.37533993868341, 83.90402202308178],
       [127.36196798642365, 36.37534003494341, 93.15056296065450],
       [127.36196810941010, 36.37533659957271, 85.51887221727520],
       [127.36196728072407, 36.37532604530983, 85.98785615339875],
       [127.36196412742538, 36.37532767157725, 79.38007204141468],
       [127.36196512342269, 36.37532286964233, 84.01747309882194],
       [127.36197590940166, 36.37534313774782, 85.30570204742253],
       [127.36197535244466, 36.37532679710263, 87.47067864891142],
       [127.36197222701347, 36.37534213012663, 90.24703700188547],
       [127.36196681583604, 36.37534582388141, 91.00898329075426],
       [127.36194716775579, 36.37535553538217, 91.44039158523083],
       [127.36196283297112, 36.37533483846174, 87.65992157347500],
       [127.36196868420309, 36.37531164969885, 85.48161349166185],
       [127.36197439436592, 36.37536048018138, 90.48425628710538],
       [127.36197113744149, 36.37534488668538, 87.64323205873370],
       [127.36195919104337, 36.37534938250915, 84.79646051302552],
       [127.36193228183419, 36.37534518331059, 83.66143487021327],
       [127.36194146049567, 36.37535608284647, 86.07509742397815],
       [127.36196688466569, 36.37533612451377, 84.63457719143480],
       [127.36196230285312, 36.37533061099084, 88.19336731266230],
       [127.36196552128624, 36.37533663705661, 89.98191736452281],
       [127.36196488898175, 36.37532849409349, 92.22460321523249],
       [127.36195309418000, 36.37532259725695, 93.86061862204224],
       [127.36195954973375, 36.37531278146101, 87.38538277707994],
       [127.36194562180171, 36.37534508203940, 88.64145589154214],
       [127.36195519767205, 36.37535921749760, 90.61021425295621],
       [127.36195852333742, 36.37534525988431, 87.96414574328810],
       [127.36195031063632, 36.37532201541067, 90.50516287051141],
       [127.36194202368036, 36.37534178279455, 93.30487505346537],
       [127.36194394099060, 36.37533330151983, 92.08592654298991],
       [127.36195696159349, 36.37533976281667, 88.86544834915549],
       [127.36195908508830, 36.37536064269342, 92.85308710206300],
       [127.36193886290715, 36.37533907584124, 92.35906981676817],
       [127.36194968883709, 36.37532202391017, 92.51533206366003],
       [127.36192582287961, 36.37533322364865, 90.51008488144726],
       [127.36193424990486, 36.37535193914594, 94.80539788398892],
       [127.36192803476560, 36.37533680712313, 98.43020328972489],
       [127.36192933876409, 36.37536925921803, 95.03358504083008],
       [127.36192595273499, 36.37536353825708, 90.06261820066720],
       [127.36193364081120, 36.37534606731784, 90.60584903322160],
       [127.36193134043837, 36.37536162113365, 94.43304223101586],
       [127.36193589345243, 36.37536616304518, 97.72909515630454],
       [127.36192973351243, 36.37534554416919, 97.70392110385001],
       [127.36191754463519, 36.37537125431095, 97.29080352373421],
       [127.36193039551380, 36.37535314802778, 96.67192784603685],
       [127.36193628860298, 36.37534488539744, 99.26102435402572],
       [127.36193041001717, 36.37534851383156, 93.69356068689376],
       [127.36192963772433, 36.37535830965580, 87.97729806881398],
       [127.36192011129269, 36.37538773231621, 95.20760446786880],
       [127.36192826999051, 36.37537526833388, 97.56502794474363],
       [127.36192791858943, 36.37537274132719, 96.70595544949174],
       [127.36192207675870, 36.37540161766776, 96.54880339186639],
       [127.36190772637087, 36.37540676684274, 93.92373240459710],
       [127.36191130104093, 36.37539954164539, 97.48275197111070],
       [127.36190339542277, 36.37539522461086, 96.39251495897770],
       [127.36190511394507, 36.37538429277291, 94.47752630803734],
       [127.36190459035554, 36.37538066782618, 95.92311719153076],
       [127.36191019539352, 36.37537067488606, 97.23140583466738],
       [127.36189693953740, 36.37539050028414, 92.31270592752844],
       [127.36189599637140, 36.37538542916580, 92.60912972781807],
       [127.36188693477811, 36.37538782400534, 96.29854660201818],
       [127.36189084813165, 36.37538515550775, 96.53295902162790],
       [127.36189202725139, 36.37538825362201, 100.16945617925376],
       [127.36189739419551, 36.37538977056402, 97.31091780215502],
       [127.36188790120670, 36.37538482219623, 97.19751172233373],
       [127.36191511645055, 36.37537996439652, 94.85391898173839],
       [127.36189981781963, 36.37538906053102, 97.72248052898794],
       [127.36189024688366, 36.37537969941928, 91.93502131197602],
       [127.36190251842810, 36.37539389438835, 93.55421734414995],
       [127.36189506147794, 36.37541562838043, 99.06628923956305],
       [127.36191962192284, 36.37537939130524, 93.46729822270572],
       [127.36188518971048, 36.37539309424280, 91.06799015589058],
       [127.36187400393632, 36.37541110113300, 87.62790156714618],
       [127.36188993230282, 36.37538652165098, 83.01653823256493],
       [127.36188249426856, 36.37539884233531, 91.40341521613300],
       [127.36190704342681, 36.37541446657917, 89.02793180197477],
       [127.36188096204658, 36.37544202044219, 88.33800146635622],
       [127.36187843573263, 36.37544834056898, 92.51625352166593],
       [127.36187113950012, 36.37541799431316, 86.13762871734798],
       [127.36188295041759, 36.37539945135526, 84.21370397601277],
       [127.36189717663338, 36.37540663689411, 92.17188053298742],
       [127.36189467123408, 36.37541110540038, 86.45560548920184],
       [127.36189906647851, 36.37541780650410, 84.57715007755905],
       [127.36188762052886, 36.37542077067222, 86.29478828050196],
       [127.36190351337359, 36.37540993907308, 85.81591871567070],
       [127.36188525817016, 36.37541087595658, 88.75480938889086],
       [127.36188557943466, 36.37541443782763, 88.81656168401241],
       [127.36187795442666, 36.37539972337392, 85.27703260444105],
       [127.36187350747757, 36.37540460728183, 84.28876091819257],
       [127.36189016131537, 36.37542420044237, 84.87076997663826],
       [127.36190436709991, 36.37544176273560, 83.29373173788190],
       [127.36188931331260, 36.37545177382719, 83.86226268950850],
       [127.36189829340381, 36.37547168623031, 80.43564913980663],
       [127.36190487014397, 36.37543361296083, 83.70106110069901],
       [127.36189515277364, 36.37542921543729, 84.21170591656119],
       [127.36188812039455, 36.37541739216272, 83.07024255394936],
       [127.36189386919773, 36.37540922359610, 82.77770306915045],
       [127.36190369220654, 36.37543354094926, 81.99252267833799],
       [127.36190483631279, 36.37543236010866, 83.69602164905518],
       [127.36191798274545, 36.37542536009443, 81.69235192518681],
       [127.36192544837665, 36.37541802704015, 79.21783634461462],
       [127.36191036210776, 36.37540771586757, 86.87600697483867],
       [127.36190117586133, 36.37541976184463, 85.13592264428735],
       [127.36190431399844, 36.37540913332521, 82.77690954133868],
       [127.36190693770453, 36.37539939045087, 78.05180265847594],
       [127.36191035576253, 36.37541668821218, 86.09130290988833],
       [127.36191362480338, 36.37540794222169, 84.34741739835590],
       [127.36189226991941, 36.37541545623340, 85.70299832616001],
       [127.36191166966265, 36.37539825219356, 86.46873760875314],
       [127.36191384997623, 36.37539772671487, 89.12136135064065],
       [127.36189508472407, 36.37542479129885, 95.65874619130045],
       [127.36190424103285, 36.37540024756260, 93.39256525319070],
       [127.36190095788510, 36.37542416778218, 94.68271242175251],
       [127.36190849926307, 36.37539230665719, 87.70537099335343],
       [127.36189793703582, 36.37541873626139, 84.59798791538924],
       [127.36191139031003, 36.37541354315825, 85.45532556530088],
       [127.36191455771822, 36.37540179227885, 89.84351590089500],
       [127.36190120520023, 36.37540109829118, 94.73956699669361],
       [127.36191511412845, 36.37540058363263, 89.08342773746699],
       [127.36190134081437, 36.37540893846369, 92.14709873963147],
       [127.36189835642274, 36.37543527841599, 91.71418467909098],
       [127.36189996314846, 36.37542796157903, 91.67536876350641],
       [127.36190398913465, 36.37543145202484, 85.73114760220051],
       [127.36191020252504, 36.37541815134401, 89.53382415696979],
       [127.36190234059377, 36.37541584243231, 93.64046068955213],
       [127.36189071300568, 36.37541915996486, 88.12827246915549],
       [127.36190581922645, 36.37542193110676, 90.23248587269336],
       [127.36190167394599, 36.37540702739035, 83.87559022754431],
       [127.36191981048889, 36.37540932006655, 84.60729564446956],
       [127.36191062851142, 36.37542008722973, 82.51826482638717],
       [127.36189554603860, 36.37544574803779, 86.36022956855595],
       [127.36189938131544, 36.37545665552314, 88.49185141455382],
       [127.36189590807174, 36.37544733978554, 87.05076969973743],
       [127.36189341738668, 36.37543205583358, 85.08912254963070],
       [127.36189246552033, 36.37542713989865, 90.21438305079937],
       [127.36190958495661, 36.37541686828280, 93.46611611824483],
       [127.36190851050709, 36.37540269786118, 88.04549918416888],
       [127.36189395324111, 36.37542073427387, 87.80718535743654],
       [127.36190653586766, 36.37543690816373, 91.40220168884844],
       [127.36190666775717, 36.37543101161309, 93.01302526146173],
       [127.36190250496949, 36.37543690862086, 92.59693493787199],
       [127.36192099740560, 36.37542608028271, 83.50297166500241],
       [127.36190991818316, 36.37543822961985, 87.37589108943939],
       [127.36192081715531, 36.37542513624726, 82.76064690854400],
       [127.36191472094187, 36.37544308470623, 92.88933609891683],
       [127.36192698937153, 36.37544249096663, 90.98588478937745],
       [127.36191934203794, 36.37543685738762, 92.03755604475737],
       [127.36195037949537, 36.37543065424079, 96.58528305590153],
       [127.36195425444066, 36.37540715611079, 88.24988561309874],
       [127.36191794819534, 36.37541261133986, 87.55068513937294],
       [127.36191780800660, 36.37542292945039, 87.64905834384263],
       [127.36191697493078, 36.37543871662398, 94.00601314846426],
       [127.36190623449218, 36.37540622956576, 95.54340125247836],
       [127.36192068091958, 36.37539921916905, 95.86974244005978],
       [127.36193108531218, 36.37541643964410, 89.81423730775714],
       [127.36193911607495, 36.37543111042604, 92.51585699897259],
       [127.36192852973419, 36.37542872164540, 90.08504458982497],
       [127.36192997016231, 36.37542017920332, 90.56749601662159],
       [127.36191778493053, 36.37542991279204, 89.54186779167503],
       [127.36191196167944, 36.37541765678124, 89.96801063511521],
       [127.36191739156682, 36.37542428743956, 91.04400000814348],
       [127.36190188637397, 36.37543576451288, 88.84242717549205],
       [127.36189107432070, 36.37542901217022, 87.05011784005910],
       [127.36189871492529, 36.37543216133442, 91.80125318188220],
       [127.36191612792220, 36.37542904312346, 89.69753280188888],
       [127.36192586611719, 36.37542805400748, 90.23005512356758],
       [127.36193264946399, 36.37542631901617, 80.67067194357514],
       [127.36191060806733, 36.37545131520810, 85.75361350085586],
       [127.36191423300089, 36.37544919716606, 88.15786159876734],
       [127.36190248350472, 36.37542759055383, 90.14761307463050],
       [127.36191938983671, 36.37541955798783, 87.99452346935868],
       [127.36191493179942, 36.37541051854758, 85.37551046255976],
       [127.36193056181210, 36.37543943112932, 86.82224828656763],
       [127.36193767684770, 36.37543529730542, 87.10787680186331],
       [127.36193672586892, 36.37545105826562, 80.22075859084725],
       [127.36193019306955, 36.37544269580530, 75.84705338813365],
       [127.36193582222619, 36.37543924319326, 81.09180654305965],
       [127.36192658305495, 36.37544116217543, 87.21581130847335],
       [127.36194528906864, 36.37543933500024, 85.70543594751507],
       [127.36194837385642, 36.37542300443730, 84.66799887269735],
       [127.36193784917710, 36.37544272120358, 81.42007995396852],
       [127.36193538010561, 36.37542364029232, 76.50915550999343],
       [127.36190855586590, 36.37545304930794, 80.44108191505075],
       [127.36189842823475, 36.37541567144260, 82.65325731970370],
       [127.36192460912119, 36.37541725639051, 84.89589388947934],
       [127.36193318618575, 36.37541125681013, 81.56446688435972],
       [127.36192382612975, 36.37542414473478, 78.10493460297585],
       [127.36192554398066, 36.37540414613484, 83.43188254442066],
       [127.36192149581024, 36.37538044105051, 80.28221639897674],
       [127.36190358139227, 36.37542258909103, 85.82336339820176],
       [127.36189976120909, 36.37542238112791, 80.87180824391544],
       [127.36191000987982, 36.37540245221726, 80.93642969336361],
       [127.36191210238528, 36.37540305048613, 84.78134460188448],
       [127.36191074465241, 36.37539151221170, 82.98076215013862],
       [127.36189645334403, 36.37543343411883, 78.79554120078683],
       [127.36190434952202, 36.37543104441509, 81.07775840070099],
       [127.36193553746260, 36.37540173194088, 84.19979022443295],
       [127.36192411564383, 36.37539859268414, 84.39202296547592],
       [127.36192423270053, 36.37540030622182, 83.40341253671795],
       [127.36190572623882, 36.37542395754810, 82.31697981059551],
       [127.36190813562307, 36.37542909908115, 86.44733247999102],
       [127.36189600551182, 36.37542759758077, 81.09235630836338],
       [127.36191171961364, 36.37541456098393, 81.56123975291848],
       [127.36191479316594, 36.37539224784192, 83.37729573156685],
       [127.36192857768393, 36.37539700893095, 82.65128661878407],
       [127.36192084276941, 36.37537701261014, 80.72909606900066],
       [127.36194972244448, 36.37538769131049, 77.36322350241244],
       [127.36193437656266, 36.37540836134298, 81.62514534126967],
       [127.36192923043514, 36.37541689639314, 88.47766236029565],
       [127.36193671116995, 36.37539062516269, 89.87509810645133],
       [127.36193856953989, 36.37541467625613, 91.60117562767118],
       [127.36192796646131, 36.37540524910003, 85.60580037534237],
       [127.36190699689519, 36.37541529133672, 87.05005964078009],
       [127.36190380544919, 36.37540704139659, 83.60355324950069],
       [127.36191616101806, 36.37540410218277, 86.15342021360993],
       [127.36190638746830, 36.37541727978476, 84.73074148595333],
       [127.36191419400907, 36.37539919165582, 90.43874052632600],
       [127.36192139215323, 36.37542539593772, 85.01931119803339],
       [127.36190134109805, 36.37542537052738, 80.57048696279526],
       [127.36192048481540, 36.37541597194615, 91.69575678929687],
       [127.36194089576352, 36.37540369668638, 92.86401616409421],
       [127.36192372168901, 36.37542010164280, 92.29753888305277],
       [127.36193011211266, 36.37539573302850, 91.26309388782829],
       [127.36191261544066, 36.37540964311947, 88.90292562730610],
       [127.36190912429259, 36.37541478650095, 90.89319092780352],
       [127.36190972914048, 36.37539394586764, 86.34814987797290],
       [127.36190722905154, 36.37539266290050, 83.17540116980672],
       [127.36191890082773, 36.37537911378254, 87.30317610967904],
       [127.36192806515929, 36.37540088803465, 96.34400118980557],
       [127.36193476861074, 36.37538263597381, 94.83108869008720],
       [127.36191231823561, 36.37541406559372, 95.38658863585442],
       [127.36190260576929, 36.37541931627296, 95.46397777087986],
       [127.36190708342068, 36.37541970384665, 97.02319017052650],
       [127.36190963271908, 36.37540426131945, 93.70202245470136],
       [127.36191998906742, 36.37544106231489, 93.07053459994495],
       [127.36192939198391, 36.37537738518932, 92.54591719899327],
       [127.36191840403315, 36.37540456562534, 93.57829595729709],
       [127.36191129062200, 36.37541680547547, 93.56564642675221],
       [127.36190633214379, 36.37542403240124, 96.42660023830831],
       [127.36190846340229, 36.37543373277708, 96.81914969719946],
       [127.36191688037609, 36.37542025946092, 98.94664363469929],
       [127.36192859361468, 36.37538297944702, 96.36209055036306],
       [127.36192459166152, 36.37540639048692, 97.92097741551697],
       [127.36189570979808, 36.37543127335868, 103.17657427862287],
       [127.36192609933966, 36.37540560290043, 96.83396022580564],
       [127.36193498747279, 36.37539860765449, 92.22759478352964],
       [127.36194114090479, 36.37539484576342, 96.94394272286445],
       [127.36192842882389, 36.37539261386159, 97.67268254980445],
       [127.36191568192235, 36.37542304784252, 98.49924038816243],
       [127.36191731130181, 36.37542510310238, 94.87665613461286],
       [127.36191886437344, 36.37543019203380, 88.28725345619023],
       [127.36192535045829, 36.37541892327837, 92.32242561411113],
       [127.36192568194890, 36.37539947612566, 94.92515315022320],
       [127.36191699492680, 36.37538810996160, 90.08548250608146],
       [127.36191440421463, 36.37542196241821, 85.18395160976797],
       [127.36192459485682, 36.37542595003764, 92.79450158402324],
       [127.36190422065548, 36.37541456112126, 91.58556001260877],
       [127.36190774641486, 36.37541798134491, 90.27006916515529],
       [127.36191171860973, 36.37541671771044, 88.86161143705249],
       [127.36191309678799, 36.37541423203787, 85.71637524571270],
       [127.36192159084233, 36.37542698983046, 87.11233616899699],
       [127.36191877710972, 36.37541437140006, 83.22838653065264],
       [127.36189642290446, 36.37540293063888, 80.14177281968296],
       [127.36190467595719, 36.37540755996955, 85.26738917268813],
       [127.36192093658704, 36.37542357312670, 89.68336489517242],
       [127.36191291243044, 36.37541078014576, 84.40031863749027],
       [127.36193290268191, 36.37539365678309, 81.95454683154821],
       [127.36192009017763, 36.37540153782093, 81.94916951470077],
       [127.36191260503233, 36.37541904785384, 82.70840648282319],
       [127.36190482647717, 36.37539337497505, 83.12613426800817],
       [127.36191775870776, 36.37539772730938, 81.43822459969670],
       [127.36191610139446, 36.37539258019107, 81.91060825902969],
       [127.36193877183341, 36.37538863654718, 85.15951072424650],
       [127.36192232794204, 36.37537901809365, 81.21749361231923],
       [127.36191516404507, 36.37541245752053, 77.56728722248226],
       [127.36190574221739, 36.37540069458301, 75.85252289008349],
       [127.36190560144433, 36.37541146823234, 76.96698622684926],
       [127.36188851969487, 36.37541115235263, 84.68617852963507],
       [127.36189584432385, 36.37539827856783, 88.69910760596395],
       [127.36189684735704, 36.37540077259282, 88.35233323089778],
       [127.36189231246139, 36.37539336988509, 83.04452221840620],
       [127.36189617417811, 36.37539785299877, 78.87491724546999],
       [127.36190281215789, 36.37538199756409, 78.48293919954449],
       [127.36190129086388, 36.37537390498177, 80.24761747196317],
       [127.36190575785371, 36.37538111532578, 86.01816521771252],
       [127.36191436705298, 36.37539025817962, 89.32745579537004],
       [127.36190137804357, 36.37539408825037, 82.91054989304394],
       [127.36191689580401, 36.37539004845023, 84.43362378980964],
       [127.36191711495344, 36.37539642968491, 87.83222108893096],
       [127.36192706519992, 36.37538924601664, 90.04934637714177],
       [127.36191927422429, 36.37540042913584, 88.56228557787836],
       [127.36191582524290, 36.37540507608001, 90.92163879238069],
       [127.36191397213956, 36.37538336044133, 94.38537377025932],
       [127.36191233194796, 36.37537935105345, 89.42614498268813],
       [127.36191061031634, 36.37538121648811, 82.89270383678377],
       [127.36192851363626, 36.37538860279023, 82.68989506736398],
       [127.36192868697617, 36.37537009700578, 84.15372958593071],
       [127.36191731010427, 36.37538068202650, 89.16349331289530],
       [127.36191939631627, 36.37538889508694, 90.38979452941567],
       [127.36191421321269, 36.37538909978353, 86.92452971916646],
       [127.36192366164582, 36.37538213010395, 88.34932942781597],
       [127.36189222933587, 36.37539230012744, 89.64974419306964],
       [127.36190774251611, 36.37540527107887, 92.88449340593070],
       [127.36192434924985, 36.37540369019938, 92.62084014248103],
       [127.36191827383442, 36.37539734870627, 89.08294570446014],
       [127.36192727338315, 36.37537715735612, 91.63526957854629],
       [127.36192235002636, 36.37537930514785, 87.64009008929133],
       [127.36189719296286, 36.37539337098842, 86.74920653551817],
       [127.36190060595423, 36.37537768505633, 92.38693557027727],
       [127.36191353728580, 36.37539271171308, 98.00418646540493],
       [127.36191690703306, 36.37539929035022, 97.88077837973833],
       [127.36192692392531, 36.37537091389962, 97.44059006124735],
       [127.36191875281507, 36.37536345969723, 94.48810780607164],
       [127.36190931226641, 36.37537702184053, 93.09831842500716],
       [127.36191157756492, 36.37538074204767, 90.21004018187523],
       [127.36191793879803, 36.37541280889602, 94.27621434256434],
       [127.36191729885823, 36.37542285977406, 99.73414864111692],
       [127.36192671571665, 36.37539531948173, 93.80847204010934],
       [127.36192527076102, 36.37540443702514, 92.99896585382521],
       [127.36192679727935, 36.37539402002817, 92.70353748463094],
       [127.36193554888206, 36.37538777865034, 88.10355779156089],
       [127.36193427958943, 36.37538927185972, 88.16735355742276],
       [127.36193641064730, 36.37541166917275, 87.34892235696316],
       [127.36194852144565, 36.37541633767479, 93.08817669376731],
       [127.36192792188265, 36.37539471983207, 97.73411819990724],
       [127.36194001974773, 36.37539806056964, 93.10064719244838],
       [127.36194419819716, 36.37538946427868, 91.08244617562741],
       [127.36194651935641, 36.37540091753146, 93.17598764970899],
       [127.36195092285297, 36.37538015435938, 92.15193687286228],
       [127.36194549818730, 36.37540042194379, 89.62365665286779],
       [127.36191460846102, 36.37541137917191, 89.77968707680702],
       [127.36193472722418, 36.37540089403575, 86.13998595159501],
       [127.36192104359816, 36.37539423322590, 85.81477634236217],
       [127.36193505621786, 36.37540236831556, 85.10205339267850],
       [127.36193330694270, 36.37540538995107, 86.47879055142403],
       [127.36194732358216, 36.37540548411118, 94.91874327324331],
       [127.36193915900542, 36.37542859700584, 95.19034783355892],
       [127.36193956120098, 36.37541142579742, 90.15467103198171],
       [127.36193131397475, 36.37538973421363, 90.04343355167657],
       [127.36191832330968, 36.37540668359911, 92.63833528105170],
       [127.36192801645760, 36.37538933255450, 91.53730630129576],
       [127.36193272049464, 36.37537056573916, 91.56565751507878],
       [127.36191606572044, 36.37538910703787, 85.16238460596651],
       [127.36191582922834, 36.37538660450177, 89.40805150102824],
       [127.36192298873520, 36.37537894749460, 93.99696882162243],
       [127.36193166644571, 36.37539532789613, 94.20761920511723],
       [127.36192272370782, 36.37540178874137, 92.69389573298395],
       [127.36192257255450, 36.37540583787347, 89.29960352554917],
       [127.36192381275711, 36.37538640356001, 95.76117188017815],
       [127.36193250917128, 36.37538502076348, 92.53295467421412],
       [127.36192885225418, 36.37542069660027, 98.38930054847151],
       [127.36191874621697, 36.37540678731246, 92.35807327367365],
       [127.36191327705752, 36.37539845557295, 92.88880643900484],
       [127.36192147531504, 36.37540571279099, 94.03695946093649],
       [127.36191712726108, 36.37540426758417, 92.45220099482685],
       [127.36191648260956, 36.37539503564454, 95.14467997476459],
       [127.36189677671624, 36.37541239036176, 97.40037893876433],
       [127.36190090389162, 36.37542462508182, 91.19489287771285],
       [127.36190480893471, 36.37542421252184, 88.00598070956767],
       [127.36191245218667, 36.37541889316680, 95.28752607107162],
       [127.36190343615749, 36.37541895300294, 96.70284101087600],
       [127.36191500324135, 36.37541468550923, 92.53247267939150],
       [127.36189741696096, 36.37543701119802, 95.19872146006674],
       [127.36189341589504, 36.37542014660836, 92.80711488518864],
       [127.36189027943702, 36.37542976767575, 92.19538054149598],
       [127.36190341943085, 36.37542180852596, 90.59890297241509],
       [127.36189173474585, 36.37541421694841, 94.14204692002386],
       [127.36190969697162, 36.37540726241514, 94.26841155253351],
       [127.36190537385737, 36.37540590900821, 89.99226589966565],
       [127.36191640997318, 36.37540458324995, 88.71049307752401],
       [127.36189371567377, 36.37539297189847, 89.90611086040735],
       [127.36191055731827, 36.37540283233000, 90.49810274597257],
       [127.36190389668823, 36.37541365708243, 89.17402678914368],
       [127.36190398844077, 36.37539462609768, 93.00773025583476],
       [127.36191461490671, 36.37541810843707, 92.02859404683113],
       [127.36190031467186, 36.37543834122862, 93.05872845742851],
       [127.36189977982811, 36.37543078361723, 92.62122016306967],
       [127.36191727702482, 36.37540957437802, 90.02018025051802],
       [127.36191267428796, 36.37540699432707, 87.27945288643241],
       [127.36191266377890, 36.37542073987200, 95.26355133857578],
       [127.36190923281772, 36.37542564408232, 101.73270139470696],
       [127.36190818021768, 36.37543090080631, 93.49333475530148],
       [127.36191794589224, 36.37541029611217, 90.38682452123612],
       [127.36190750125776, 36.37540478654859, 90.80674909800291],
       [127.36190733853677, 36.37539912478060, 85.21126499865204],
       [127.36191344101115, 36.37540791861463, 88.34594567585737],
       [127.36189767110496, 36.37542530962185, 89.69233185611665],
       [127.36190669706259, 36.37542249891342, 90.10267731267959],
       [127.36189886256611, 36.37541072083768, 85.36815746221691],
       [127.36189817562973, 36.37541770696372, 88.02542672026902],
       [127.36190321272586, 36.37544441213967, 91.08028062712401],
       [127.36191683164239, 36.37540695799392, 92.41312963142991],
       [127.36192425667510, 36.37539675194640, 89.47074021305889],
       [127.36189291614265, 36.37540801522439, 84.37191834580153],
       [127.36188705140867, 36.37542111238599, 92.39375988673419],
       [127.36188879423374, 36.37541339076395, 93.57739489432424],
       [127.36191817692206, 36.37540205460064, 90.96112673077732],
       [127.36191553449362, 36.37539398051725, 89.81404047738761],
       [127.36194087034457, 36.37538389688890, 92.05844813678414]
       ]
   }
}
