{
  "type":  "Feature",
  "properties": {
       "name": "Locations generated by GNSS-SDR" 
   },
  "geometry": {
      "type": "MultiPoint",
      "coordinates": [
       [127.36189605533754, 36.37544185264402, 90.15472556278110],
       [127.36189787481511, 36.37541260572560, 95.20784881338477],
       [127.36190845713504, 36.37544589604798, 98.76212787255645],
       [127.36189744552027, 36.37542919332186, 98.08602942060679],
       [127.36190780713635, 36.37544890562620, 101.45550750941038],
       [127.36191278883251, 36.37544716982557, 106.51549445930868],
       [127.36194675191560, 36.37546691609339, 106.26917473971844],
       [127.36192185574373, 36.37542475471402, 105.00835063401610],
       [127.36193313429892, 36.37540569022334, 105.52670560218394],
       [127.36194136265868, 36.37543093464998, 108.55181987769902],
       [127.36193024466606, 36.37543873049184, 106.04408355616033],
       [127.36192782404413, 36.37542280963428, 102.70427786000073],
       [127.36193910979902, 36.37540484036838, 102.53928101807833],
       [127.36193708387665, 36.37545824329830, 101.22163823153824],
       [127.36196959741042, 36.37549138088232, 110.90515395533293],
       [127.36196434010829, 36.37547548421894, 112.53979151789099],
       [127.36193813550571, 36.37545690487367, 104.36770039983094],
       [127.36194017529671, 36.37546665039294, 105.13018288463354],
       [127.36190583279902, 36.37546730491496, 100.28932317811996],
       [127.36194380797407, 36.37547286603073, 103.04889912065119],
       [127.36192108058077, 36.37545607467501, 98.69372796267271],
       [127.36192230272535, 36.37543172688936, 98.43180848844349],
       [127.36193777109808, 36.37541210503784, 103.96821471955627],
       [127.36192970722277, 36.37544643383156, 103.64098230563104],
       [127.36192448249489, 36.37543594855391, 99.40802815090865],
       [127.36191719117360, 36.37542183224271, 103.03689483460039],
       [127.36192976981924, 36.37544600570126, 101.53441988024861],
       [127.36192000702636, 36.37544766284405, 98.03737511858344],
       [127.36191536206572, 36.37544075402584, 100.41957855504006],
       [127.36190717697980, 36.37545170231274, 95.80246540065855],
       [127.36192189715412, 36.37542283090461, 98.64689391478896],
       [127.36190821074538, 36.37543473916956, 91.91286229528487],
       [127.36195249730552, 36.37545315959581, 95.57419146411121],
       [127.36194183314900, 36.37543673562006, 96.64265955612063],
       [127.36192486524216, 36.37541999874576, 99.01950381230563],
       [127.36193679624688, 36.37544450772904, 101.02306908089668],
       [127.36194383232079, 36.37546759663618, 101.37952257879078],
       [127.36193507321943, 36.37546161979155, 99.98918922524899],
       [127.36194242066895, 36.37544785556890, 96.55021639540792],
       [127.36191513280612, 36.37542500331873, 93.95770629122853],
       [127.36189626099760, 36.37544520658429, 87.42303887847811],
       [127.36191682096226, 36.37542213263191, 91.06757685169578],
       [127.36191232079427, 36.37538439072097, 91.78221591282636],
       [127.36192857808123, 36.37536980356407, 98.30166052188724],
       [127.36192674215334, 36.37542181826391, 88.95998411718756],
       [127.36189919643309, 36.37538260690459, 91.16860882751644],
       [127.36195562752863, 36.37541056749590, 99.54115601070225],
       [127.36194138585363, 36.37541392162645, 102.53794102650136],
       [127.36191360415434, 36.37538663335808, 98.39685154519975],
       [127.36190624521167, 36.37539859417187, 95.51534764468670],
       [127.36192454949632, 36.37543705438652, 100.59729185886681],
       [127.36193333320935, 36.37538810757051, 97.33809446729720],
       [127.36192382381591, 36.37540605184545, 97.10906555410475],
       [127.36192075389565, 36.37541931599662, 94.25223371386528],
       [127.36192706494145, 36.37542757470770, 98.08827256411314],
       [127.36193454935564, 36.37542661693093, 94.97023483552039],
       [127.36191499990868, 36.37541247243533, 90.88676975108683],
       [127.36193672202668, 36.37538226317453, 93.32435123901814],
       [127.36191010530617, 36.37541064667419, 92.33652070071548],
       [127.36191277193804, 36.37538096486295, 92.00803739205003],
       [127.36192331349150, 36.37537838846994, 101.78367465082556],
       [127.36195250254028, 36.37538637887895, 105.81513429805636],
       [127.36195316245642, 36.37540138912827, 93.31617052853107],
       [127.36194458541456, 36.37539094929362, 90.37906271032989],
       [127.36192450826155, 36.37539352800830, 87.02972079627216],
       [127.36190949832178, 36.37541286463884, 90.81665147840977],
       [127.36190598158601, 36.37538054007393, 90.74316395632923],
       [127.36192169053808, 36.37538074268692, 91.83164789248258],
       [127.36194829208817, 36.37540606898605, 93.83278264384717],
       [127.36193553963078, 36.37540973658974, 90.57844525668770],
       [127.36192764012125, 36.37543289103697, 87.24877034965903],
       [127.36192988101385, 36.37544407452555, 92.63973207958043],
       [127.36193650177225, 36.37539866225446, 93.41299019474536],
       [127.36194167745505, 36.37538474082478, 94.07885401509702],
       [127.36191036271443, 36.37540423873974, 82.92170861735940],
       [127.36193389774677, 36.37539599559575, 85.28377304971218],
       [127.36195571692680, 36.37541437427027, 92.17193907499313],
       [127.36195625988532, 36.37544012807008, 90.08925984613597],
       [127.36193618834159, 36.37541058847906, 88.38963091373444],
       [127.36193303663489, 36.37545497142294, 87.47211515624076],
       [127.36193793214868, 36.37544346616999, 86.69740422256291],
       [127.36192437745447, 36.37544542840693, 83.99894549418241],
       [127.36193346692059, 36.37546286239176, 82.43838282115757],
       [127.36193756968341, 36.37546359311372, 78.57229993771762],
       [127.36193229153839, 36.37543292284145, 74.51837085001171],
       [127.36192000919587, 36.37546310634753, 83.90107182320207],
       [127.36192673351452, 36.37544526989387, 89.82985530700535],
       [127.36194244203260, 36.37548946612529, 90.19908429868519],
       [127.36195652281104, 36.37545603389027, 90.49362501874566],
       [127.36193765608850, 36.37543019232437, 81.31401009764522],
       [127.36195065246496, 36.37542970680835, 88.19816393125802],
       [127.36192304874906, 36.37547110289236, 78.88623112346977],
       [127.36189340601075, 36.37545238150029, 79.89435130450875],
       [127.36189907591312, 36.37545611199759, 84.09746472537518],
       [127.36189592332457, 36.37543439995452, 78.25409530568868],
       [127.36189299732675, 36.37543353994317, 76.77612000796944],
       [127.36191029267378, 36.37544350718601, 83.16272690892220],
       [127.36190681748036, 36.37544194486756, 82.68528526648879],
       [127.36189604173030, 36.37544257550729, 78.64561304543167],
       [127.36190823788436, 36.37544242090625, 83.74344764929265],
       [127.36189935429839, 36.37544453193204, 84.30347358807921],
       [127.36188989915871, 36.37544822026404, 82.20817528013140],
       [127.36187371950562, 36.37544234966093, 85.66439231671393],
       [127.36189128476278, 36.37542808125072, 91.07100220397115],
       [127.36193304137866, 36.37542806929913, 89.81912735942751],
       [127.36192687131015, 36.37545453167233, 84.15994654037058],
       [127.36194713512508, 36.37543648681415, 88.82225814182311],
       [127.36192119438451, 36.37543577069955, 89.60240918491036],
       [127.36193060804405, 36.37545670542207, 90.38148172479123],
       [127.36191654427518, 36.37542047085975, 88.73985875211656],
       [127.36192054645231, 36.37545901990014, 91.62243697512895],
       [127.36194623913700, 36.37547265391912, 95.86871179379523],
       [127.36191528584648, 36.37542407630408, 90.17227985057980],
       [127.36188392260459, 36.37542658971879, 87.99485180433840],
       [127.36189319024905, 36.37541831980595, 89.93738408759236],
       [127.36189718701290, 36.37544638998444, 85.81403452903032],
       [127.36189975041863, 36.37546107340627, 84.41762338113040],
       [127.36191626012049, 36.37542755651325, 89.49515307508409],
       [127.36191455640115, 36.37544037352340, 89.90034908242524],
       [127.36190534179855, 36.37545467780718, 90.88792605232447],
       [127.36188534540256, 36.37543666483780, 87.27770119532943],
       [127.36187208849263, 36.37542257030464, 85.15445586945862],
       [127.36192251784631, 36.37545148005547, 91.51222702860832],
       [127.36190639541643, 36.37544854459130, 91.04760365746915],
       [127.36190474439300, 36.37543527656116, 89.99883373361081],
       [127.36187998777402, 36.37544788537742, 80.11911487206817],
       [127.36189371160236, 36.37545549241852, 84.08263740409166],
       [127.36187773475925, 36.37541776628643, 98.00156430061907],
       [127.36188574039457, 36.37538195659558, 97.41815995424986],
       [127.36187946991720, 36.37539331566897, 89.74035736732185],
       [127.36186102169718, 36.37545733407928, 89.04956151545048],
       [127.36185002943161, 36.37543004153770, 87.10476148873568],
       [127.36189863553302, 36.37541227605405, 95.20496932789683],
       [127.36190652237806, 36.37542306219817, 96.93763805367053],
       [127.36188785747598, 36.37541975852132, 94.81036801636219],
       [127.36188661257485, 36.37541831085902, 95.64144515246153],
       [127.36189443130405, 36.37540067121274, 99.04981431644410],
       [127.36189246913473, 36.37542945306583, 96.46016541961581],
       [127.36190752385880, 36.37545670457864, 96.07251469045877],
       [127.36191593217336, 36.37546043545573, 95.10225138068199],
       [127.36190764748258, 36.37543643855120, 95.14906664192677],
       [127.36192501612453, 36.37541493469125, 105.17512825690210],
       [127.36189633600362, 36.37540524443176, 97.01856722217053],
       [127.36191499689059, 36.37542604734345, 103.64313285052776],
       [127.36189830549458, 36.37542704309977, 104.02276161778718],
       [127.36188659711682, 36.37543695634562, 97.32299543451518],
       [127.36187890013892, 36.37544535798780, 95.92005556821823],
       [127.36191519934954, 36.37541919622927, 100.56517319567502],
       [127.36191632541706, 36.37541345695688, 99.83832586742938],
       [127.36192460563910, 36.37542377426378, 101.92414043098688],
       [127.36190692075591, 36.37539262008329, 96.82781881187111],
       [127.36189447007293, 36.37542028486799, 98.10292426403612],
       [127.36189546137339, 36.37543770167048, 102.82687859330326],
       [127.36187560717801, 36.37539820208298, 99.87885624542832],
       [127.36190948596230, 36.37542358177696, 101.64068574365228],
       [127.36190103922850, 36.37540634582186, 104.17425019014627],
       [127.36189203977602, 36.37538806291898, 105.20250345487148],
       [127.36190334844292, 36.37540376823605, 106.78436218295246],
       [127.36189172377073, 36.37540065793730, 102.31723530311137],
       [127.36190767612599, 36.37541715215659, 100.36852827668190],
       [127.36192262949876, 36.37540940816747, 106.93142768461257],
       [127.36190134595934, 36.37541039788718, 106.44173397496343],
       [127.36191375134362, 36.37542055980853, 106.66217569354922],
       [127.36189468657054, 36.37542870839756, 101.62756222020835],
       [127.36192117517574, 36.37544953784612, 103.04609235096723],
       [127.36193737862777, 36.37542185332283, 105.37440213561058],
       [127.36196931085593, 36.37545507429503, 108.05693761259317],
       [127.36196118995976, 36.37544985495587, 108.91475429851562],
       [127.36195794940544, 36.37546367576385, 107.37653575092554],
       [127.36194721064419, 36.37544657820425, 105.16311490349472],
       [127.36192810466201, 36.37544706854305, 103.69439571164548],
       [127.36192590205883, 36.37545209576568, 103.12246631365269],
       [127.36190643837159, 36.37545597552948, 103.40550093166530],
       [127.36193087460515, 36.37546556293388, 105.64509336184710],
       [127.36194286212813, 36.37547941942373, 104.84324633609504],
       [127.36191250614795, 36.37546685762246, 97.26671767141670],
       [127.36192110310677, 36.37547935230037, 101.14401420857757],
       [127.36195238141980, 36.37548544696511, 111.64944696333259],
       [127.36195137730705, 36.37547854923331, 113.10384927131236],
       [127.36194608137345, 36.37548615089013, 103.54794730991125],
       [127.36195825780369, 36.37550509872277, 101.66453094687313],
       [127.36193117886904, 36.37548257055761, 99.42808706685901],
       [127.36191647616471, 36.37547096339974, 96.33103912044317],
       [127.36192705188803, 36.37549196863817, 98.28034005872905],
       [127.36197244252891, 36.37549514021793, 101.17095561698079],
       [127.36195510751932, 36.37548267826337, 99.75927451252937],
       [127.36194056275248, 36.37547177393356, 99.05465471930802],
       [127.36197438135864, 36.37553355995176, 102.51797855552286],
       [127.36197750039142, 36.37553263966684, 101.36800916679204],
       [127.36198803439254, 36.37552986586741, 104.76803877949715],
       [127.36197814280008, 36.37552769045246, 102.91939120832831],
       [127.36200072255761, 36.37552624164979, 103.13012779876590],
       [127.36196358096169, 36.37549742895752, 98.86384301166981],
       [127.36194797792520, 36.37547786524055, 96.83578480686992],
       [127.36197973292292, 36.37548778842398, 101.51330157648772],
       [127.36197541119810, 36.37553247757834, 97.48943260591477],
       [127.36196039197497, 36.37554294389384, 90.32658217567950],
       [127.36198568178114, 36.37555163805641, 93.01960567757487],
       [127.36197187132434, 36.37551992800734, 92.75379253551364],
       [127.36201190916812, 36.37551553892818, 104.67100790608674],
       [127.36200726203685, 36.37548929571077, 101.38976945728064],
       [127.36199610357617, 36.37547570769624, 98.71375564858317],
       [127.36199016640992, 36.37549182943825, 101.71242112014443],
       [127.36198943439348, 36.37551143739999, 102.97367261629552],
       [127.36198813933927, 36.37550960991322, 101.26604276802391],
       [127.36200166525249, 36.37549105435078, 101.55850728321820],
       [127.36198155538206, 36.37551117796161, 97.56113334093243],
       [127.36197092611923, 36.37550277289903, 99.62145637813956],
       [127.36196215259905, 36.37549009272372, 100.49462176952511],
       [127.36196263148652, 36.37545456027230, 97.23605299647897],
       [127.36195887517060, 36.37543274003271, 101.34768942650408],
       [127.36199487880745, 36.37545200901488, 104.84417528752238],
       [127.36197597139548, 36.37544850704923, 96.59630873426795],
       [127.36194880641237, 36.37542539349634, 102.21179845649749],
       [127.36192824441393, 36.37543433886866, 95.39385396707803],
       [127.36195872803290, 36.37542362015517, 99.30255476851016],
       [127.36195926717784, 36.37541896766468, 96.22888007853180],
       [127.36198073602331, 36.37541731050672, 97.26138915866613],
       [127.36197244992630, 36.37543985285023, 95.69060975220054],
       [127.36194471409360, 36.37543430577766, 90.68846284598112],
       [127.36195635954685, 36.37543761167478, 97.06182355247438],
       [127.36196453124802, 36.37542516790830, 100.25501379463822],
       [127.36197274776919, 36.37543110109718, 94.79329047445208],
       [127.36197404287566, 36.37544327309848, 94.05439640395343],
       [127.36196796329895, 36.37542135853132, 91.29245129320771],
       [127.36197809264362, 36.37542490842372, 94.78440563380718],
       [127.36199573109378, 36.37542538558447, 105.38558914232999],
       [127.36198205733918, 36.37543005752826, 96.96648065559566],
       [127.36196866274450, 36.37545524919909, 95.19196455273777],
       [127.36196115917005, 36.37544774057881, 95.22461013402790],
       [127.36196276111929, 36.37542222736798, 95.13458708394319],
       [127.36195591651899, 36.37541208903055, 97.13431338034570],
       [127.36194924777460, 36.37539571285767, 99.13908117916435],
       [127.36193211756866, 36.37540621085250, 94.92386892437935],
       [127.36193543805844, 36.37542107698687, 88.95101468265057],
       [127.36195603995651, 36.37540612899529, 94.70342856086791],
       [127.36193235875672, 36.37539312594456, 94.56222922448069],
       [127.36193235392535, 36.37538460696588, 90.86712050531060],
       [127.36195200685674, 36.37538047917436, 94.11145357508212],
       [127.36193764791030, 36.37537149133902, 92.20102729368955],
       [127.36192444499450, 36.37540723389684, 90.73266019672155],
       [127.36190755832858, 36.37540225172701, 93.92608076334000],
       [127.36191486031920, 36.37541981307142, 92.82819496747106],
       [127.36193610976042, 36.37541881764194, 88.21055190637708],
       [127.36193835577978, 36.37541979335415, 84.53375645726919],
       [127.36191917068101, 36.37539107553003, 88.71107443887740],
       [127.36191346706811, 36.37541915280440, 88.92045947164297],
       [127.36193483500399, 36.37540715395962, 92.17616703547537],
       [127.36193392265227, 36.37540981831560, 86.54958498571068],
       [127.36193432330298, 36.37543107539885, 88.27074155304581],
       [127.36192862835074, 36.37540115903700, 86.35405907593668],
       [127.36191738287991, 36.37540471007823, 83.66294798906893],
       [127.36191905579862, 36.37543132552197, 83.82968158368021],
       [127.36190326332024, 36.37539561379640, 80.21789382398129],
       [127.36190890646172, 36.37541393457894, 86.68940469529480],
       [127.36191665990749, 36.37539462600508, 94.04627929255366],
       [127.36192474825735, 36.37542391510401, 88.42367352452129],
       [127.36191624628557, 36.37544017506693, 86.22774938121438],
       [127.36189928279364, 36.37540571171133, 84.66281963512301],
       [127.36191855434161, 36.37541472415430, 91.18121510930359],
       [127.36189470773104, 36.37539497726000, 82.34173676092178],
       [127.36189172856544, 36.37541377005393, 81.14724685065448],
       [127.36189531898913, 36.37542217961798, 84.04687370453030],
       [127.36189810277304, 36.37543933009820, 83.56198995374143],
       [127.36190739367132, 36.37543855977493, 84.32345483265817],
       [127.36191536405845, 36.37543525889618, 83.62141424417496],
       [127.36191033519040, 36.37542970724796, 85.93504995107651],
       [127.36187656123869, 36.37542756549141, 82.45783965848386],
       [127.36189573476204, 36.37539942501868, 91.63332612253726],
       [127.36189647583760, 36.37540971110406, 84.46974861249328],
       [127.36189838166169, 36.37541657606186, 82.05233752354980],
       [127.36191184799878, 36.37544296741297, 83.08731450792402],
       [127.36189263645254, 36.37543896282195, 80.27843263838440],
       [127.36185616421592, 36.37543103089440, 80.91893030051142],
       [127.36187217372267, 36.37543446864011, 80.87667457852513],
       [127.36186903608117, 36.37544236440765, 81.55349690560251],
       [127.36189989994428, 36.37544903757842, 87.52202926669270],
       [127.36190486274710, 36.37543664258445, 89.46191694121808],
       [127.36190309134918, 36.37540282187207, 89.33554118871689],
       [127.36189489472125, 36.37543221014223, 83.66686476673931],
       [127.36188731586378, 36.37541494220378, 88.28086999896914],
       [127.36190147395857, 36.37540152388031, 89.68000153638422],
       [127.36191050856236, 36.37542739639515, 96.10493869148195],
       [127.36190198704247, 36.37541501548520, 87.28372702095658],
       [127.36190329824886, 36.37543977345768, 92.37336062360555],
       [127.36188496532387, 36.37541436904130, 89.54486647062004],
       [127.36189095946180, 36.37540631691208, 87.16415914241225],
       [127.36188104914002, 36.37541489128900, 85.72320494148880],
       [127.36189274417950, 36.37540077289298, 90.64461427554488],
       [127.36188882045808, 36.37537305463569, 93.02936798613518],
       [127.36189321092779, 36.37539313950973, 98.31375515181571],
       [127.36187817097576, 36.37539798515321, 88.61659421492368],
       [127.36186291517571, 36.37537389199314, 95.61982117686421],
       [127.36186909057128, 36.37539700261615, 91.45996353588998],
       [127.36188566687851, 36.37540507482105, 87.20070721115917],
       [127.36189476264686, 36.37540686829298, 95.93335311207920],
       [127.36185682810418, 36.37538260850025, 93.74486043583602],
       [127.36184519182760, 36.37540440619695, 90.22627170942724],
       [127.36184634855219, 36.37542131417589, 87.20169529784471],
       [127.36185958469704, 36.37540617935178, 96.60510342009366],
       [127.36186224322533, 36.37538000093536, 96.70033514220268],
       [127.36185563802390, 36.37540767674885, 101.41353184264153],
       [127.36185604846743, 36.37541109038894, 94.68947882950306],
       [127.36185983183833, 36.37541982172222, 96.31273852009326],
       [127.36185025626446, 36.37540372834726, 88.08449099957943],
       [127.36185021920409, 36.37541433422996, 89.64454969763756],
       [127.36187086560236, 36.37544415124638, 92.45179175585508],
       [127.36187109621909, 36.37544045989625, 91.14508215803653],
       [127.36185842005111, 36.37540732026831, 92.44934835564345],
       [127.36186050265131, 36.37539692052606, 96.59116859175265],
       [127.36183547433629, 36.37538640249024, 93.26734257023782],
       [127.36185777919854, 36.37544189370715, 98.01128857396543],
       [127.36186029438022, 36.37544128590773, 94.68715310376137],
       [127.36185302941253, 36.37541522327772, 96.50641143135726],
       [127.36187067518112, 36.37540614996612, 96.84786182921380],
       [127.36184241512207, 36.37539535802969, 92.73846763838083],
       [127.36182348356962, 36.37542751249036, 86.95449558924884],
       [127.36184948035978, 36.37546048650503, 88.20789058040828],
       [127.36184936519938, 36.37545233443376, 89.48449224792421],
       [127.36187169861643, 36.37541821015779, 93.12993454653770],
       [127.36185047031594, 36.37541713924269, 92.18481836095452],
       [127.36184390428110, 36.37540701014824, 91.58375493437052],
       [127.36184233846525, 36.37537945245606, 89.51330055203289],
       [127.36184843970048, 36.37540196540163, 89.76886335480958],
       [127.36185916941001, 36.37539530004361, 87.27267492003739],
       [127.36187848639830, 36.37541352285416, 91.25485739205033],
       [127.36187839279965, 36.37540670986260, 94.02659335546196],
       [127.36185467873048, 36.37543190722475, 91.29328993242234],
       [127.36184191157177, 36.37543350105976, 92.17061106115580],
       [127.36185634729792, 36.37544336614910, 92.82664308790118],
       [127.36188966756487, 36.37545227479455, 96.47841476555914],
       [127.36188193756266, 36.37542897795789, 91.90104380622506],
       [127.36187629218614, 36.37543005857435, 91.40187268331647],
       [127.36189703795650, 36.37542051178985, 96.18720491416752],
       [127.36190197043059, 36.37543120198060, 95.16803170461208],
       [127.36190440505736, 36.37543125231936, 87.43309882842004],
       [127.36192021244710, 36.37547074280256, 90.69393480662256],
       [127.36190824426741, 36.37543445143029, 94.20840629935265],
       [127.36190197996083, 36.37541209900440, 96.16281330585480],
       [127.36192872069743, 36.37545376694655, 97.50754115637392],
       [127.36191628647781, 36.37543877531009, 96.16374518908560],
       [127.36191420900124, 36.37545456868919, 94.77718150429428],
       [127.36193404520535, 36.37544718092953, 93.46894301474094],
       [127.36192983459013, 36.37546161762300, 91.38506018370390],
       [127.36192967447538, 36.37546066658135, 94.80123481154442],
       [127.36190597556980, 36.37546016059007, 93.36136590782553],
       [127.36192524637966, 36.37546207868191, 97.91424644365907],
       [127.36193283007711, 36.37548127508601, 97.80281434301287],
       [127.36191701130602, 36.37545018541706, 96.89696727134287],
       [127.36195196271036, 36.37545626547649, 100.41669005248696],
       [127.36195201500577, 36.37546650494625, 96.95152889750898],
       [127.36193686711010, 36.37543913289333, 98.73088700603694],
       [127.36192933643366, 36.37544681741162, 98.84051030408591],
       [127.36191777748913, 36.37548617746673, 93.38412971608341],
       [127.36195010743820, 36.37545487798066, 99.57350687216967],
       [127.36193534970191, 36.37545073955150, 97.38894668780267],
       [127.36194123373357, 36.37544145315611, 96.24963426496834],
       [127.36192817155849, 36.37545294333730, 92.87604072410613],
       [127.36192304357725, 36.37544550759399, 94.80834091641009],
       [127.36196197113620, 36.37545489298469, 97.79333657864481],
       [127.36193954502153, 36.37548632950779, 96.07611622195691],
       [127.36193469008009, 36.37544679158444, 99.41984593123198],
       [127.36195300736533, 36.37544894251243, 99.66786041948944],
       [127.36196207976712, 36.37547473453975, 104.14624309074134],
       [127.36193581992545, 36.37545948380010, 96.05562681145966],
       [127.36191725784504, 36.37544549869715, 94.59986826032400],
       [127.36190272328702, 36.37543371375929, 94.47710863873363],
       [127.36189294636551, 36.37544347602298, 95.20448318310082],
       [127.36191994442034, 36.37546929146278, 101.04897003900260],
       [127.36192874493987, 36.37544395401756, 104.34195342659950],
       [127.36194259352693, 36.37543451620275, 103.10508525464684],
       [127.36192029869406, 36.37545769202449, 101.99610121268779],
       [127.36190780151802, 36.37541837725664, 100.78869855217636],
       [127.36189961390295, 36.37541306150978, 93.03584742546082],
       [127.36191711075705, 36.37544539895349, 95.36836467217654],
       [127.36193449104739, 36.37542317149510, 100.25035850703716],
       [127.36191480116506, 36.37542285250917, 103.60447038523853],
       [127.36190771250727, 36.37545272292645, 101.83670626208186],
       [127.36191215886640, 36.37540552910271, 96.85295976512134],
       [127.36189603318036, 36.37540641705333, 94.03624566271901],
       [127.36189301912205, 36.37538862722296, 91.36295354273170],
       [127.36192062763384, 36.37540608984680, 96.47863141726702],
       [127.36193050587296, 36.37542916684888, 93.87116173002869],
       [127.36190916680340, 36.37542998596103, 96.40763091295958],
       [127.36190848477050, 36.37540978108402, 100.13048433046788],
       [127.36188145133366, 36.37542523409812, 93.21943134069443],
       [127.36188757382490, 36.37542831839722, 94.30726327653974],
       [127.36189002228623, 36.37544678820316, 93.80085118580610],
       [127.36189556880309, 36.37544865713574, 92.71237387042493],
       [127.36190505454688, 36.37545951503169, 95.45153415668756],
       [127.36191241666846, 36.37545270921873, 97.58335113152862],
       [127.36190236246949, 36.37545231116808, 93.61912553384900],
       [127.36187314346560, 36.37542828587020, 93.81523737870157],
       [127.36188645578680, 36.37545514386696, 92.77481462806463],
       [127.36187739346325, 36.37547679809556, 89.19160498864949],
       [127.36191120346292, 36.37547192575912, 95.18196517694741],
       [127.36192256586462, 36.37546499760291, 96.61327781807631],
       [127.36191792284464, 36.37543402308461, 96.75898253731430],
       [127.36191879940966, 36.37545576724054, 93.61034035496414],
       [127.36189587107691, 36.37545263866731, 86.36585081648082],
       [127.36188299130470, 36.37545100022664, 86.91513381991535],
       [127.36187847896633, 36.37545983602842, 94.81859591882676],
       [127.36188976656541, 36.37545354675029, 95.82010866142809],
       [127.36188322851886, 36.37544746349030, 89.28027261327952],
       [127.36188164747078, 36.37545322907891, 84.84985403250903],
       [127.36188602759930, 36.37544585283025, 85.68259098567069],
       [127.36189616476847, 36.37543841144119, 87.07155956141651],
       [127.36187639546330, 36.37545495485874, 85.11834399215877],
       [127.36185544988253, 36.37544919429972, 82.17078208830208],
       [127.36185752608959, 36.37542643996428, 85.73336005397141],
       [127.36187000179753, 36.37544173716442, 86.91937519703060],
       [127.36185920746917, 36.37545550340671, 85.12282051425427],
       [127.36185636909167, 36.37546097740163, 83.90867938287556],
       [127.36185509766889, 36.37545899893265, 80.18651980627328],
       [127.36186038656061, 36.37547990134773, 80.34185510594398],
       [127.36184864022893, 36.37544856789258, 79.39266163296998],
       [127.36187974639334, 36.37543524517718, 83.22291515953839],
       [127.36186478987351, 36.37545792870533, 81.38914086017758],
       [127.36184292680656, 36.37545974850880, 84.73282662406564],
       [127.36184750892090, 36.37543257176232, 84.39535860996693],
       [127.36184672357994, 36.37545246561253, 84.31861070264131],
       [127.36187175856848, 36.37545684270119, 91.15818445198238],
       [127.36188052350055, 36.37543355468311, 87.25915339682251],
       [127.36187328088029, 36.37546925527013, 84.50312632042915],
       [127.36186175531407, 36.37545685674266, 85.91200909856707],
       [127.36186114353661, 36.37544712649358, 87.77131451014429],
       [127.36185370626360, 36.37542910722807, 86.10407236497849],
       [127.36187350075706, 36.37545407677175, 90.22834078874439],
       [127.36187619271156, 36.37543078519275, 98.06467073690146],
       [127.36184847047419, 36.37544048265517, 87.90685336850584],
       [127.36185741526286, 36.37544235892097, 87.38717780914158],
       [127.36186856617890, 36.37544977938489, 88.55924507509917],
       [127.36185752580630, 36.37541530668948, 86.87188221327960],
       [127.36186365760848, 36.37542276541500, 89.92366105504334],
       [127.36187585647200, 36.37545633086086, 88.69705386925489],
       [127.36188184753746, 36.37544021381487, 89.58465708419681],
       [127.36188631357861, 36.37544368340678, 93.46128544583917],
       [127.36189790198877, 36.37545540120028, 86.70052927359939],
       [127.36188049792308, 36.37543045850004, 89.57163839507848],
       [127.36187976960832, 36.37546370057452, 96.37586542963982],
       [127.36187419026749, 36.37546514498511, 95.86634599696845],
       [127.36186754227431, 36.37544537663025, 93.71259688585997],
       [127.36185510002785, 36.37544608555995, 97.94844380859286],
       [127.36188008038536, 36.37543444589333, 99.54649925883859],
       [127.36188807485142, 36.37541939294935, 101.23075532726943],
       [127.36190297888473, 36.37546572012625, 98.39680493157357],
       [127.36188649308077, 36.37543230364899, 91.24001828022301],
       [127.36189602379073, 36.37542157839645, 95.38481860514730],
       [127.36188117425880, 36.37540983314883, 94.82316649612039],
       [127.36190859230754, 36.37538975618659, 98.81373295746744],
       [127.36188732572144, 36.37542853696439, 96.13850103504956],
       [127.36188646821232, 36.37544105157526, 99.62595814839005],
       [127.36190611764509, 36.37545075391425, 99.22103861626238],
       [127.36187853329969, 36.37540194112619, 94.19859682768583],
       [127.36187338505684, 36.37536730918382, 95.28626726381481],
       [127.36189666342264, 36.37537682427203, 99.90723115392029],
       [127.36189323350111, 36.37540990020209, 101.56261923909187],
       [127.36189878855254, 36.37538616398987, 105.12672543153167],
       [127.36189459630712, 36.37538465347954, 98.83377648703754],
       [127.36190451563692, 36.37539617723618, 98.25932439975441],
       [127.36188129526440, 36.37540106919666, 94.36191043164581],
       [127.36191336347345, 36.37539807745991, 98.34761023987085],
       [127.36190832848463, 36.37540014731150, 90.87780909053981],
       [127.36191196595941, 36.37541741634582, 96.54213293548673],
       [127.36190152641329, 36.37541608801288, 100.47489497158676],
       [127.36189011830692, 36.37536768146910, 103.91652595624328],
       [127.36189896460296, 36.37536783673886, 104.47555087786168],
       [127.36189177728625, 36.37537786980086, 99.74533485621214],
       [127.36189179684756, 36.37538857850015, 101.96162411849946],
       [127.36192082785927, 36.37539754412056, 104.53780408017337],
       [127.36191179960815, 36.37540318134096, 98.86756419017911],
       [127.36193860108412, 36.37538483675356, 108.47803880181164],
       [127.36191610245183, 36.37538711770747, 105.06592394132167],
       [127.36190966382405, 36.37538731720161, 97.97765121795237],
       [127.36192188451099, 36.37537272743104, 100.21317090559751],
       [127.36192392922850, 36.37540027765304, 97.29275377187878],
       [127.36192928724287, 36.37538405805304, 95.11015140824020],
       [127.36190578561020, 36.37539859815737, 96.05697505827993],
       [127.36189989221891, 36.37539488757934, 99.04757233150303],
       [127.36190531291511, 36.37539196831322, 99.68955724779516],
       [127.36192811663000, 36.37538731637445, 97.94265822414309],
       [127.36192194154228, 36.37540329388065, 101.09045915305614],
       [127.36192318292910, 36.37539524935893, 98.39338824711740],
       [127.36191835462441, 36.37538081361615, 99.75338155124336],
       [127.36194286486837, 36.37539247305945, 105.81752015557140],
       [127.36192704370029, 36.37539944922123, 97.56080687232316],
       [127.36192787935795, 36.37541878919803, 95.79094751831144],
       [127.36197287394452, 36.37542485963612, 95.16559905838221],
       [127.36194293094533, 36.37541007710637, 99.77465805970132],
       [127.36193569102885, 36.37539261137730, 102.49045757111162],
       [127.36194842247477, 36.37544143248524, 101.66028888989240],
       [127.36197694207836, 36.37543442160371, 103.43868093937635],
       [127.36196887736662, 36.37543946867054, 105.79547189455479],
       [127.36198938008675, 36.37541922990589, 106.87000031396747],
       [127.36196929232952, 36.37543305973013, 98.67870413791388],
       [127.36198318105460, 36.37542196302170, 103.02424140740186],
       [127.36198442548520, 36.37544926712651, 106.69038489554077],
       [127.36196372851545, 36.37543892980319, 105.17610353510827],
       [127.36195811411727, 36.37542516176295, 102.74429215490818],
       [127.36198662052492, 36.37545076136548, 104.89761648140848],
       [127.36200790795347, 36.37544416671246, 108.92261859029531],
       [127.36199123377150, 36.37542596139394, 106.37704297527671],
       [127.36200565056063, 36.37544433521632, 109.19519904907793],
       [127.36199323558321, 36.37544577590008, 110.65756694599986],
       [127.36195246520693, 36.37546972487124, 106.86870881821960],
       [127.36197628832208, 36.37551508035848, 116.03756105341017],
       [127.36199676115952, 36.37550964887190, 104.22138479258865],
       [127.36200165031170, 36.37549006205572, 108.51623202674091],
       [127.36198673959014, 36.37548209168747, 102.29853263217956],
       [127.36198889850571, 36.37548340037483, 106.20534805860370],
       [127.36199341402032, 36.37547878073386, 108.42905537877232],
       [127.36200030740929, 36.37549303411465, 106.85817996412516],
       [127.36199540566238, 36.37548905878128, 101.32179621327668],
       [127.36199289957770, 36.37550389469115, 108.22277967631817],
       [127.36199963284278, 36.37547919058738, 108.73087026551366],
       [127.36198140399129, 36.37546822381470, 108.17543345969170],
       [127.36196327857846, 36.37551660197271, 100.20607360824943],
       [127.36198064665048, 36.37552789182546, 109.55540161300451],
       [127.36200952907080, 36.37552974164500, 111.00056424923241],
       [127.36196751287915, 36.37553416443171, 107.64285191148520],
       [127.36195312040847, 36.37550584029947, 102.69506139773875],
       [127.36196663741593, 36.37552924779703, 110.49994950462133],
       [127.36196220789842, 36.37548728249173, 109.05876136664301],
       [127.36196326033513, 36.37549703930169, 102.29717568960041],
       [127.36197203348554, 36.37553615304943, 105.70917301066220],
       [127.36196689208894, 36.37551338200117, 104.55609670374542],
       [127.36195339720581, 36.37550854807460, 111.66659694164991],
       [127.36197050903060, 36.37551297886822, 111.81944523751736],
       [127.36194496975548, 36.37550139383051, 104.52186382934451],
       [127.36196165631556, 36.37549820065512, 109.32351948786527],
       [127.36194836181782, 36.37550609541986, 108.63324143830687],
       [127.36195227579691, 36.37548344927362, 106.60238741524518],
       [127.36194986651066, 36.37550104311801, 109.55760521721095],
       [127.36190998581901, 36.37547289580518, 100.78261511586607],
       [127.36192582851709, 36.37551953808421, 101.60080030467361],
       [127.36193351696097, 36.37552504816363, 102.06946950964630],
       [127.36193948178897, 36.37551173696286, 103.18379343394190],
       [127.36193143165103, 36.37550985314249, 105.62105785030872],
       [127.36191581168733, 36.37549213157877, 102.12109344452620],
       [127.36193099501115, 36.37550391034690, 104.06601348798722],
       [127.36194294489950, 36.37548211542546, 101.83098632749170],
       [127.36194499082262, 36.37551510931760, 100.88120789732784],
       [127.36192336920165, 36.37550929152850, 97.17980706412345],
       [127.36192417603547, 36.37548286998356, 101.32148759812117],
       [127.36192755957282, 36.37546330467141, 100.70863136742264],
       [127.36192798906261, 36.37547113227662, 101.26691094320267],
       [127.36191025899832, 36.37547028002057, 103.77084590587765],
       [127.36191376786179, 36.37547262228933, 102.35527017433196],
       [127.36191561504758, 36.37545529131227, 98.08110238797963],
       [127.36194980815486, 36.37548281463412, 103.38137367367744],
       [127.36192652329338, 36.37548514731210, 102.93014920316637],
       [127.36191247628108, 36.37546241505793, 97.93350518587977],
       [127.36191454055425, 36.37547171206317, 95.65992197208107],
       [127.36190283268617, 36.37545503151009, 93.08776430785656],
       [127.36190455935085, 36.37548107552530, 97.11586542520672],
       [127.36190748211499, 36.37547266189028, 102.34418872091919],
       [127.36189740533540, 36.37544440960790, 97.74251592066139],
       [127.36190341565489, 36.37543996544636, 97.89462131448090],
       [127.36191932202649, 36.37544016516905, 102.26597004383802],
       [127.36190092109825, 36.37540538096541, 96.40789997018874],
       [127.36189410847184, 36.37543108094069, 95.43037415109575],
       [127.36191951343204, 36.37544414051744, 96.89526006858796],
       [127.36189869128975, 36.37545092079367, 98.55058707576245],
       [127.36191616186979, 36.37544740847407, 101.24762711673975],
       [127.36189942989181, 36.37543592412755, 99.09603215660900],
       [127.36191969401919, 36.37541974680170, 103.68061058875173],
       [127.36189547181900, 36.37538004920307, 98.85198502521962],
       [127.36190783711758, 36.37542702155711, 101.21312774345279],
       [127.36190410083580, 36.37543015078246, 99.72175989951938],
       [127.36189886140768, 36.37542873468865, 98.34526754170656],
       [127.36192350658601, 36.37546712802312, 99.12005043309182],
       [127.36192465788370, 36.37546547812299, 96.35665943473577],
       [127.36192071875080, 36.37546451009879, 100.90152590442449],
       [127.36192025276802, 36.37545908246436, 101.60605397168547],
       [127.36193624626679, 36.37544206331792, 99.25475806463510],
       [127.36192244428661, 36.37545200589846, 97.34654048364609],
       [127.36189177031456, 36.37544625868725, 92.88315894175321],
       [127.36190416382827, 36.37543774611689, 94.97929712664336],
       [127.36189280132855, 36.37543241643663, 99.19454672839493],
       [127.36189630973735, 36.37542908582953, 96.59233983233571],
       [127.36190455843905, 36.37543053429280, 95.02726297918707],
       [127.36189545677908, 36.37542648730420, 87.95804901886731],
       [127.36191109818023, 36.37542078520435, 93.39434101525694],
       [127.36191658710673, 36.37544543071625, 98.03356529213488],
       [127.36190139306154, 36.37544836659213, 94.89921487774700],
       [127.36188617390555, 36.37543468813031, 95.60735747031868],
       [127.36189359855939, 36.37540040417556, 101.55048496183008],
       [127.36187493964854, 36.37539236549362, 99.82461743243039],
       [127.36189961137867, 36.37541196877361, 93.74312827922404],
       [127.36190631877136, 36.37547715355826, 95.40035890974104],
       [127.36190435437368, 36.37543322569814, 92.89453670661896],
       [127.36192479664336, 36.37540386609535, 94.42354168556631],
       [127.36193047622049, 36.37543802458033, 95.49061633273959],
       [127.36192057901252, 36.37543487683854, 94.87276699114591],
       [127.36193880566884, 36.37544491046475, 102.14640828501433],
       [127.36191346836421, 36.37543093597994, 95.74607712496072],
       [127.36189649488416, 36.37540448441658, 93.44945043511689],
       [127.36190753960888, 36.37544261528819, 95.13265162333846],
       [127.36192986321645, 36.37548045866775, 95.46823548246175],
       [127.36193389318385, 36.37544971780438, 93.14127249643207],
       [127.36194653342133, 36.37544635896382, 93.67624701000750],
       [127.36192552320506, 36.37542871026826, 92.01683051977307],
       [127.36193937263587, 36.37545027532840, 95.17811911553144],
       [127.36191467392081, 36.37542925474903, 95.32339638937265],
       [127.36192955127382, 36.37542139871747, 99.71385034080595],
       [127.36195145393664, 36.37548850126871, 102.41352744400501],
       [127.36195152329465, 36.37547250854917, 97.04806781653315],
       [127.36191346232856, 36.37542586421210, 91.53107529226691],
       [127.36193943935561, 36.37544125429198, 93.63298746664077],
       [127.36194583207038, 36.37541676171220, 89.79786823876202],
       [127.36193927482957, 36.37541020015074, 94.44468441419303],
       [127.36193422258000, 36.37543046399254, 96.79108618665487],
       [127.36190150286770, 36.37542806272354, 94.53433915320784],
       [127.36191751058441, 36.37544265078097, 94.40141040366143],
       [127.36188872894377, 36.37541750686783, 86.13224358111620],
       [127.36189308338774, 36.37541626714659, 86.19578224234283],
       [127.36191763041363, 36.37541674389307, 87.45139587949961],
       [127.36189670191651, 36.37540910759762, 85.56903002876788],
       [127.36191032025962, 36.37540449730712, 85.70319954305887],
       [127.36191737841818, 36.37544297127479, 90.31261480972171],
       [127.36191456101099, 36.37544716566333, 86.46182416658849],
       [127.36192832207314, 36.37544230580669, 89.36403003148735],
       [127.36194362623716, 36.37542871957084, 92.75425741076469],
       [127.36191368874357, 36.37542057951794, 85.02299744356424],
       [127.36192272644119, 36.37545004875663, 87.29998511914164],
       [127.36190712887648, 36.37547811320893, 87.67104180622846],
       [127.36187053395091, 36.37546499897395, 80.17275862209499],
       [127.36187418420934, 36.37543791479185, 83.63474847190082],
       [127.36188945696762, 36.37539886785503, 84.53323361929506],
       [127.36191440806982, 36.37542214431422, 90.60238401871175],
       [127.36192022296444, 36.37544151572001, 88.24093199707568],
       [127.36190041344264, 36.37545283917066, 85.87208754662424],
       [127.36189835791414, 36.37545345563609, 80.52224192302674],
       [127.36185636582462, 36.37541742835128, 75.79660970252007],
       [127.36187759532653, 36.37545135746694, 82.34850440826267],
       [127.36190586932391, 36.37546278763281, 87.21155595965683],
       [127.36188081999559, 36.37545260758985, 79.41400670073926],
       [127.36190198384507, 36.37546534976667, 80.85591560602188],
       [127.36189925472733, 36.37545351463707, 81.43522766325623],
       [127.36187194523674, 36.37544796423757, 77.39154765196145],
       [127.36187566973929, 36.37544852259694, 80.62201360333711],
       [127.36188209619483, 36.37539513740485, 84.40085230022669],
       [127.36188662300884, 36.37543612921776, 80.16156135033816],
       [127.36188489884751, 36.37546310924215, 82.16401176620275],
       [127.36188442030306, 36.37547213336699, 83.90102716814727],
       [127.36187868640752, 36.37547034852980, 79.25261757057160],
       [127.36187897227622, 36.37543844355425, 81.61475080344826],
       [127.36186232313482, 36.37543610899876, 80.41228865738958],
       [127.36185551400938, 36.37543450085845, 75.52874048333615],
       [127.36187467422965, 36.37544829109232, 72.84392567910254],
       [127.36186741667403, 36.37543530337717, 74.87841103132814],
       [127.36187424942220, 36.37544499777644, 80.63688902370632],
       [127.36186182557347, 36.37541451227744, 78.13883511722088],
       [127.36188412355132, 36.37543632675007, 81.34728028438985],
       [127.36188348665061, 36.37543805095522, 81.64548043254763],
       [127.36190581790540, 36.37543158232587, 87.53546857554466],
       [127.36186688507247, 36.37544215560547, 83.83106830436736],
       [127.36187555225455, 36.37545958828274, 85.66016879770905],
       [127.36187969653130, 36.37546659261668, 80.39983152970672],
       [127.36189891854835, 36.37547698108627, 85.31611075345427],
       [127.36188703358825, 36.37546415256293, 82.25401896517724],
       [127.36187006902071, 36.37548895709703, 75.89410853385925],
       [127.36185074190158, 36.37550397278298, 72.70438552182168],
       [127.36182017415733, 36.37546776194829, 70.08347966894507],
       [127.36186848908885, 36.37549437578188, 78.17332925274968],
       [127.36190718603282, 36.37552198364041, 80.94919567182660],
       [127.36188191307363, 36.37551231544330, 72.91700379736722],
       [127.36187512632380, 36.37549688773864, 73.38849519100040],
       [127.36186282478808, 36.37548173772626, 72.13409802131355],
       [127.36187968540138, 36.37552243956430, 78.59222022723407],
       [127.36187883436817, 36.37552573250191, 83.51127890031785],
       [127.36186299696692, 36.37549796989134, 81.68895320221782],
       [127.36185635768339, 36.37551317492723, 77.17010071966797],
       [127.36185684187616, 36.37552054119239, 75.80628677643836],
       [127.36186846036925, 36.37550654981037, 73.90467720665038],
       [127.36189812042639, 36.37551535114805, 80.66230100207031],
       [127.36186350038534, 36.37548466953906, 80.71902838163078],
       [127.36186659230667, 36.37549657546162, 74.36019972432405],
       [127.36186777857351, 36.37550760145034, 74.80041955504566],
       [127.36187967095083, 36.37549787466702, 80.36160057969391],
       [127.36185826114942, 36.37550287982351, 80.69915843382478],
       [127.36186336237169, 36.37552303551846, 80.73497346043587],
       [127.36188569069451, 36.37552976085517, 78.27109809964895],
       [127.36189260211911, 36.37550947509214, 83.50512163713574],
       [127.36189894385112, 36.37549723497057, 88.29362519364804],
       [127.36188490269799, 36.37550209795315, 80.02187262196094],
       [127.36191084261874, 36.37552248840444, 82.99426291324198],
       [127.36191168781939, 36.37552806766536, 82.13123772852123],
       [127.36190592771904, 36.37550407445789, 84.15534986462444],
       [127.36190815404497, 36.37551771304880, 90.08051491528749],
       [127.36190528351700, 36.37548980935220, 83.24522463511676],
       [127.36189395384569, 36.37547733911559, 87.47317940834910],
       [127.36187183786470, 36.37548396756615, 91.65027625393122],
       [127.36184278143838, 36.37545553320776, 85.06655758712441],
       [127.36189422476070, 36.37552163982053, 88.41281372308731],
       [127.36189330117854, 36.37551396327392, 89.76565254572779],
       [127.36188167248059, 36.37550629519299, 86.53048036247492],
       [127.36187660453629, 36.37548429482794, 86.09258305840194],
       [127.36188884968203, 36.37551103531333, 90.01322622038424],
       [127.36189697114308, 36.37553083703691, 85.87846422195435],
       [127.36188779533258, 36.37552446698474, 88.61680260673165],
       [127.36189231564406, 36.37552127439177, 87.46964507084340],
       [127.36188718007583, 36.37555203369821, 88.71922648418695],
       [127.36188775244126, 36.37551792002544, 89.80804231017828],
       [127.36187007327089, 36.37551102765475, 88.73479799460620],
       [127.36189436259536, 36.37552363255706, 93.54490377567708],
       [127.36190453290517, 36.37551453945389, 95.76865987386554],
       [127.36189573023940, 36.37549342184318, 94.38407124578953],
       [127.36192523853225, 36.37549994301175, 95.21579707786441],
       [127.36191529431635, 36.37550314447162, 89.99731224309653],
       [127.36191845802358, 36.37551355644522, 92.01452671922743],
       [127.36191279534992, 36.37548992197856, 89.29336667619646],
       [127.36189595229253, 36.37547732326252, 90.31241076905280],
       [127.36190776781149, 36.37552176775184, 96.87961655296385],
       [127.36190787033910, 36.37550097944133, 91.56164200231433],
       [127.36190790781686, 36.37553233844050, 89.69081845507026],
       [127.36192646411705, 36.37553529187697, 91.96980873495340],
       [127.36190719210458, 36.37551352612559, 90.23827337473631],
       [127.36190874143458, 36.37551280756499, 87.88213685154915],
       [127.36193136426833, 36.37552053980357, 89.41703706141561],
       [127.36190847562695, 36.37551970900112, 89.71055653039366],
       [127.36192544820467, 36.37550149996180, 97.58745943754911],
       [127.36192693474909, 36.37551582777608, 94.93126758746803],
       [127.36193025533809, 36.37551744463646, 95.90383187774569],
       [127.36193599462285, 36.37552694659556, 100.15100425947458],
       [127.36191070969201, 36.37548860983240, 96.67605036403984],
       [127.36188604078282, 36.37549165389176, 87.27635839767754],
       [127.36187616467708, 36.37547374946882, 84.54738400131464],
       [127.36186390590882, 36.37549350864443, 79.91349448636174],
       [127.36188850327790, 36.37548316650422, 82.42027802113444],
       [127.36189092566154, 36.37550563343242, 86.38169584050775],
       [127.36192053177403, 36.37552148959431, 92.41104202996939],
       [127.36193066595139, 36.37551016186637, 100.07845569681376],
       [127.36194427320544, 36.37552057825516, 100.91489957366139],
       [127.36190791471918, 36.37551246154327, 94.42265939898789],
       [127.36190870205033, 36.37550925160462, 95.89236192591488],
       [127.36192431958787, 36.37550296915852, 91.10373885463923],
       [127.36194071164817, 36.37549885725125, 93.77436544187367],
       [127.36193298752200, 36.37549685594165, 98.46283251233399],
       [127.36191475823536, 36.37549760319367, 92.93490525055677],
       [127.36195660121115, 36.37551600021797, 102.06789672188461],
       [127.36193166038008, 36.37548846426606, 99.00176517572254],
       [127.36188873640477, 36.37546124746266, 91.98729188740253],
       [127.36192479358341, 36.37548699622031, 96.76592314802110],
       [127.36192144931528, 36.37550300941197, 97.28175434190780],
       [127.36193832958314, 36.37550744222826, 103.54536881763488],
       [127.36193306559535, 36.37550812324960, 99.68203952349722],
       [127.36189539781788, 36.37549046844894, 90.92954669427127],
       [127.36190900754555, 36.37550022327513, 95.18197464197874],
       [127.36194972089812, 36.37549697594604, 95.39287527464330],
       [127.36196850105146, 36.37551730636764, 99.95264201704413],
       [127.36193605691680, 36.37549965040501, 100.53666557651013],
       [127.36191232370031, 36.37548317751632, 95.54503450728953],
       [127.36190721595052, 36.37549058042615, 95.91553405206650],
       [127.36190278616635, 36.37552852956713, 93.29734039772302],
       [127.36190232890716, 36.37550695919720, 96.32062261085957],
       [127.36191356101796, 36.37550360308690, 97.82317951507866],
       [127.36192324548698, 36.37548706347811, 95.09892586153001],
       [127.36192570682802, 36.37546296438102, 87.98001194931567],
       [127.36194922498161, 36.37550612795594, 93.08907291386276],
       [127.36193643864354, 36.37549853191469, 95.19757842365652],
       [127.36191382111303, 36.37548829529244, 94.48007098771632],
       [127.36193016621058, 36.37549587373336, 93.23153209034353],
       [127.36192689307249, 36.37548001804803, 95.93313894793391],
       [127.36191705753167, 36.37546786084489, 93.86422131303698],
       [127.36190095839478, 36.37546364472247, 90.24169789534062]
       ]
   }
}
