{
  "type":  "Feature",
  "properties": {
       "name": "Locations generated by GNSS-SDR" 
   },
  "geometry": {
      "type": "MultiPoint",
      "coordinates": [
       [127.36194802713970, 36.37540475030606, 96.92900627572089],
       [127.36193096664887, 36.37537974941097, 94.58418839424849],
       [127.36192629277730, 36.37537704451515, 90.60896189790219],
       [127.36193646620197, 36.37538496411717, 95.61655359435827],
       [127.36195473771572, 36.37539100250432, 99.05329956021160],
       [127.36193945331949, 36.37542724111548, 96.39668575674295],
       [127.36191090084488, 36.37539817653485, 87.59644645266235],
       [127.36193922184313, 36.37541446666603, 101.35029753483832],
       [127.36192801367289, 36.37539047269448, 97.18297434132546],
       [127.36191696348121, 36.37540392790993, 89.17907949071378],
       [127.36188656637744, 36.37541383834751, 89.20747716072947],
       [127.36189962622666, 36.37538964886805, 91.19602577947080],
       [127.36189883813670, 36.37538861338659, 92.94085848424584],
       [127.36190173159767, 36.37539190912328, 91.56214573979378],
       [127.36194294957861, 36.37538881694901, 103.92454529181123],
       [127.36191765209193, 36.37537081528082, 99.63229869212955],
       [127.36193156605088, 36.37538474723429, 101.09422831330448],
       [127.36190105484731, 36.37538615116999, 93.49475600011647],
       [127.36187891771685, 36.37535917957209, 93.75299308914691],
       [127.36187475881495, 36.37538337227722, 87.42347149085253],
       [127.36186759553206, 36.37541368726803, 90.68401431664824],
       [127.36186928936078, 36.37541895493495, 86.27680044062436],
       [127.36191502647422, 36.37536628934403, 99.55753332283348],
       [127.36190904494475, 36.37537631171026, 94.45333859976381],
       [127.36190579917272, 36.37538905858770, 94.54023103229702],
       [127.36186806575306, 36.37539206356267, 85.56308021117002],
       [127.36185901311799, 36.37539792607188, 86.46482207905501],
       [127.36185721732900, 36.37541756499953, 86.29389195051044],
       [127.36185918507934, 36.37541010286468, 88.57559518236667],
       [127.36184051551253, 36.37537967939004, 76.78180045820773],
       [127.36186361694980, 36.37539905137188, 82.65984557569027],
       [127.36185715630080, 36.37540729728049, 88.16104077082127],
       [127.36188860185628, 36.37540371594131, 89.29629797674716],
       [127.36189841668453, 36.37539146918004, 89.45783016644418],
       [127.36188579869014, 36.37539238506807, 91.58144875336438],
       [127.36187098988655, 36.37538954010255, 90.70754776056856],
       [127.36183823069564, 36.37542220352245, 89.46667422913015],
       [127.36185384385628, 36.37544546166230, 89.20807908196002],
       [127.36186327160704, 36.37541348175063, 87.17544910684228],
       [127.36187696078353, 36.37541050323262, 93.29511370696127],
       [127.36184061497030, 36.37542510741347, 79.21711842808872],
       [127.36185639903643, 36.37541050052023, 81.43301304429770],
       [127.36187809075599, 36.37541483316377, 91.05692288465798],
       [127.36187868502195, 36.37540328969291, 93.79369018040597],
       [127.36182133386752, 36.37540753771283, 84.54785008169711],
       [127.36180332413315, 36.37541857265046, 82.29934068024158],
       [127.36184225574064, 36.37541886513176, 87.35262409783900],
       [127.36187042470756, 36.37540599637325, 89.04336829669774],
       [127.36187470007346, 36.37537625975869, 87.25744210835546],
       [127.36190690982497, 36.37539938526993, 96.74546842649579],
       [127.36188001076681, 36.37537982933061, 90.96513249911368],
       [127.36184733218704, 36.37539266174784, 87.99953933246434],
       [127.36186721401874, 36.37544100016310, 90.44947739038616],
       [127.36186952743718, 36.37543903853994, 81.51713025756180],
       [127.36189114734893, 36.37541348475093, 86.52553891669959],
       [127.36188044088537, 36.37542001242813, 87.51670393534005],
       [127.36186716685387, 36.37543039759521, 86.63957954198122],
       [127.36190483453652, 36.37542031259962, 95.37015861086547],
       [127.36194003981777, 36.37541158734368, 100.80640557035804],
       [127.36192224691183, 36.37541426266424, 100.53318690136075],
       [127.36187367570952, 36.37542906072373, 87.99670436512679],
       [127.36186873877158, 36.37542621105043, 88.21046695578843],
       [127.36188869384408, 36.37542439863176, 88.80916277319193],
       [127.36191306103488, 36.37542379363977, 89.21681620273739],
       [127.36190596516656, 36.37541976111911, 92.39710922446102],
       [127.36188940094749, 36.37541048688421, 93.11998625472188],
       [127.36188918328590, 36.37541312820102, 87.51065877359360],
       [127.36190686428152, 36.37540696451615, 91.44863972254097],
       [127.36189549083650, 36.37539925437115, 89.87591473199427],
       [127.36190474540483, 36.37539352085158, 85.32482259999961],
       [127.36192643986898, 36.37541903836296, 95.61044617835432],
       [127.36193189104854, 36.37540510150862, 96.94975713919848],
       [127.36191203638406, 36.37540771409473, 91.58397478610277],
       [127.36191926863913, 36.37541471834501, 91.43273148685694],
       [127.36190121239298, 36.37539367052757, 84.23311877530068],
       [127.36192820048647, 36.37540909643638, 95.04077968373895],
       [127.36190790687867, 36.37543087196860, 93.90664116200060],
       [127.36189098085791, 36.37542795062335, 86.85007009655237],
       [127.36189324858499, 36.37543267477627, 86.71861085295677],
       [127.36189733873776, 36.37541625676349, 87.00438455585390],
       [127.36187383626091, 36.37541933604373, 78.98685201536864],
       [127.36187330881202, 36.37541315570200, 82.11276283767074],
       [127.36188162871177, 36.37542353533617, 84.89852648694068],
       [127.36191167357740, 36.37541898480046, 87.45686789695174],
       [127.36190356078184, 36.37543936495967, 89.56116667483002],
       [127.36189923090572, 36.37547123040407, 85.93025944940746],
       [127.36188534901432, 36.37543306940346, 85.33670706674457],
       [127.36190610820964, 36.37540344874628, 87.58474092092365],
       [127.36190076902707, 36.37544583306936, 88.18358924053609],
       [127.36190240382406, 36.37542392260674, 88.98053599800915],
       [127.36189683565563, 36.37544486803219, 90.44853077176958],
       [127.36190140501783, 36.37543436891445, 91.31658340059221],
       [127.36194441490001, 36.37538967918192, 99.28562919609249],
       [127.36193892039451, 36.37542128852905, 96.38636591099203],
       [127.36196152994064, 36.37540785556570, 100.47588188294321],
       [127.36194757183165, 36.37540022184998, 95.97390830051154],
       [127.36194245697938, 36.37543179083353, 95.19228219147772],
       [127.36194395089322, 36.37542291832936, 98.31201940961182],
       [127.36195053185135, 36.37541815743890, 95.13284936547279],
       [127.36197589688342, 36.37544620252088, 100.67681228555739],
       [127.36198720459539, 36.37548143147969, 104.62300606537610],
       [127.36195546990091, 36.37547249870642, 96.66330737620592],
       [127.36194874967323, 36.37548444607535, 92.50362111721188],
       [127.36196943558588, 36.37549565362863, 100.08663181681186],
       [127.36195035242740, 36.37549385149259, 95.60835543461144],
       [127.36196711468732, 36.37547152454911, 99.52870796993375],
       [127.36196201465781, 36.37548360325647, 100.71852283086628],
       [127.36195529546049, 36.37545677106847, 96.91639162134379],
       [127.36197373696187, 36.37547844660661, 101.29154022037983],
       [127.36199681706195, 36.37550630064143, 108.99651837814599],
       [127.36197616687507, 36.37544419433407, 104.44508950505406],
       [127.36197367475654, 36.37545716104163, 106.05306773539633],
       [127.36198057862259, 36.37547889364114, 100.53844723943621],
       [127.36194036891828, 36.37547902797223, 95.11397504154593],
       [127.36197559481857, 36.37551378614553, 101.65772304590791],
       [127.36197092250863, 36.37551777750967, 101.85920931771398],
       [127.36198110668290, 36.37550093055354, 99.32463382557034],
       [127.36197054659335, 36.37546467555306, 100.86982528492808],
       [127.36199079876333, 36.37547530218406, 109.15756059158593],
       [127.36198109529161, 36.37550009108836, 108.37024603597820],
       [127.36203058878728, 36.37549696816680, 107.64309104625136],
       [127.36202152969588, 36.37551168102508, 110.51018589735031],
       [127.36197864596151, 36.37553084324477, 101.39325788058341],
       [127.36200979843437, 36.37548261398331, 107.23976141493767],
       [127.36200932668181, 36.37546646743094, 110.48968481831253],
       [127.36201734086066, 36.37544993693209, 108.87556036282331],
       [127.36200078092284, 36.37547715861014, 98.47935255896300],
       [127.36203519453710, 36.37546906818764, 108.91993989236653],
       [127.36204783573444, 36.37544737956118, 116.53758588247001],
       [127.36203855748970, 36.37545525793102, 116.80004358850420],
       [127.36203431948775, 36.37549197262351, 109.22751463763416],
       [127.36203007154161, 36.37544711036064, 112.09385098051280],
       [127.36201587610665, 36.37546439465246, 110.40600522980094],
       [127.36201191111500, 36.37548106782066, 107.77558089513332],
       [127.36203098444571, 36.37547138293144, 110.25985618308187],
       [127.36203206678094, 36.37547275447116, 112.26495604217052],
       [127.36200157476082, 36.37548870465851, 104.87977237999439],
       [127.36198527374621, 36.37545490429517, 99.89093163609505],
       [127.36202197608657, 36.37541323198729, 105.72448180336505],
       [127.36202908091191, 36.37542202916396, 112.43626603484154],
       [127.36202685100574, 36.37543438653194, 113.58026068378240],
       [127.36201586077169, 36.37545702125401, 111.47388505097479],
       [127.36201417184103, 36.37546639246498, 113.14070864859968],
       [127.36205547137301, 36.37545443746974, 116.72847824264318],
       [127.36202914129970, 36.37544911740776, 114.98939323332161],
       [127.36203101299336, 36.37545103326255, 111.69184695370495],
       [127.36201684915771, 36.37544088904447, 102.03202308714390],
       [127.36202346656182, 36.37543427855096, 104.64420431666076],
       [127.36201859859436, 36.37544616253220, 100.01099673192948],
       [127.36202247395936, 36.37542532820031, 104.66048008948565],
       [127.36199923415646, 36.37545283325964, 105.29033081885427],
       [127.36199084321343, 36.37542609214125, 104.01444176118821],
       [127.36200198977802, 36.37540061760147, 106.25650628283620],
       [127.36197616784735, 36.37541045792344, 101.09803374111652],
       [127.36197874015680, 36.37540948857976, 102.19273151829839],
       [127.36199216468981, 36.37541738305752, 106.05391032528132],
       [127.36198979325559, 36.37542743575970, 109.07193152792752],
       [127.36200083474770, 36.37545698772210, 107.13510504458100],
       [127.36201099973965, 36.37544721780332, 104.23705649562180],
       [127.36199839021636, 36.37542330184063, 106.54527638759464],
       [127.36199176830512, 36.37542073476823, 105.54617792740464],
       [127.36198422017300, 36.37539828636134, 100.98245334066451],
       [127.36197614032555, 36.37542737979106, 103.77089264709502],
       [127.36198823385490, 36.37541031138790, 102.57899861130863],
       [127.36199384271120, 36.37537168778760, 96.94022948201746],
       [127.36200720436030, 36.37537830069251, 105.22418592497706],
       [127.36200403147703, 36.37540049662788, 105.83909717388451],
       [127.36199302487105, 36.37538549023152, 99.92400705814362],
       [127.36197479941143, 36.37537578501792, 103.01180201955140],
       [127.36197097422792, 36.37539845146001, 103.07156267203391],
       [127.36194440284245, 36.37539951519756, 93.85467841755599],
       [127.36195271040772, 36.37539515478738, 98.34680523630232],
       [127.36196704854189, 36.37537222184028, 99.86799036618322],
       [127.36194910832785, 36.37540417725084, 95.56894901581109],
       [127.36196033358900, 36.37540861940308, 94.84213620424271],
       [127.36194486039054, 36.37538044656436, 95.92309625260532],
       [127.36194651483552, 36.37536738766106, 99.11387603916228],
       [127.36193803442744, 36.37536220371904, 97.58887617569417],
       [127.36193581009397, 36.37536889297942, 96.40727391373366],
       [127.36192032325413, 36.37536015091472, 92.63351706136018],
       [127.36193374037713, 36.37537662881297, 98.99019655585289],
       [127.36190455102356, 36.37538378498306, 90.47087171394378],
       [127.36188477048098, 36.37539243290681, 82.20787860080600],
       [127.36191108392063, 36.37536555349367, 89.22511131875217],
       [127.36193179393419, 36.37535275569157, 96.01862212829292],
       [127.36193619240242, 36.37534036322688, 95.83093524165452],
       [127.36192876571553, 36.37537039903550, 93.58242800366133],
       [127.36188559320368, 36.37538581819310, 85.25306398607790],
       [127.36190592064909, 36.37534324568833, 83.23334946762770],
       [127.36188620584332, 36.37535104341470, 80.90462100598961],
       [127.36188705334787, 36.37537270632744, 83.69998869486153],
       [127.36187313246261, 36.37538733093297, 81.21460874285549],
       [127.36191640847343, 36.37540337316797, 90.31848514638841],
       [127.36194811960118, 36.37536907666907, 94.84684043470770],
       [127.36189927610359, 36.37534846406894, 85.23115567304194],
       [127.36187741890414, 36.37536235987444, 81.46967015694827],
       [127.36189044190421, 36.37536663813707, 84.41887435410172],
       [127.36187589272878, 36.37535801684633, 78.00708884093910],
       [127.36188133851526, 36.37537058920725, 81.12908553704619],
       [127.36189175896654, 36.37538438061126, 85.33155040442944],
       [127.36189591086622, 36.37534955836577, 87.14655937440693],
       [127.36188937397931, 36.37534907135979, 88.02719319332391],
       [127.36188185372590, 36.37536478291580, 90.49999092426151],
       [127.36188558008450, 36.37537615965641, 80.85186812002212],
       [127.36189220345389, 36.37536748720643, 86.60823707375675],
       [127.36183954201765, 36.37536448775690, 75.61597964633256],
       [127.36183123919176, 36.37537255453849, 79.57055225782096],
       [127.36184503980806, 36.37538541239748, 84.69509592279792],
       [127.36189061574628, 36.37536281239737, 90.04839266184717],
       [127.36190283100716, 36.37536872366006, 93.19641542341560],
       [127.36190896737288, 36.37539046101305, 94.16927557159215],
       [127.36189429398249, 36.37537125540626, 88.35509536322206],
       [127.36187263731375, 36.37534130495516, 85.53058756794780],
       [127.36187029130856, 36.37535607866293, 81.51505183055997],
       [127.36185469324352, 36.37536854828275, 78.78358378633857],
       [127.36192242012720, 36.37536795842131, 88.45327345095575],
       [127.36192732122134, 36.37536112084769, 93.69557571411133],
       [127.36192417170682, 36.37538124470539, 93.58050317969173],
       [127.36189375162432, 36.37537116019625, 85.47642309311777],
       [127.36188867239768, 36.37539850305376, 87.68881357647479],
       [127.36187417265968, 36.37537947645518, 78.84686893969774],
       [127.36189937252765, 36.37534350086300, 86.89402658212930],
       [127.36187906176652, 36.37536752961798, 83.28582247719169],
       [127.36188521055026, 36.37535939243699, 82.15457188151777],
       [127.36186451140883, 36.37537524888562, 78.33514356613159],
       [127.36183398208105, 36.37538407199202, 76.59263999480754],
       [127.36185141260637, 36.37537159449351, 75.09859395492822],
       [127.36186927617797, 36.37537334859750, 81.65356766246259],
       [127.36186335496723, 36.37536281537423, 79.34397281333804],
       [127.36185974018625, 36.37536901117845, 76.15738313086331],
       [127.36188257828046, 36.37536934602618, 81.64918339438736],
       [127.36188440804430, 36.37537532791746, 80.38719589263201],
       [127.36187231871416, 36.37535592596365, 84.32883756794035],
       [127.36186186780002, 36.37537546586962, 78.29123213980347],
       [127.36187058008180, 36.37541399238805, 84.31039548292756],
       [127.36187147802910, 36.37538436729871, 81.06795437447727],
       [127.36186529826949, 36.37534642201999, 75.34471304994076],
       [127.36185033130205, 36.37539195531751, 73.60625073406845],
       [127.36188608926525, 36.37537453824961, 77.98745839670300],
       [127.36187528351428, 36.37538150027273, 76.77287319209427],
       [127.36187402888802, 36.37542086505146, 81.16712477989495],
       [127.36185172007693, 36.37537364307209, 78.71267219819129],
       [127.36185829419203, 36.37537600069749, 78.82600328885019],
       [127.36186530643901, 36.37538517679967, 79.88097254931927],
       [127.36190120498853, 36.37538575859853, 84.96052562166005],
       [127.36189026702624, 36.37537125810517, 89.38811606634408],
       [127.36188691539772, 36.37536914103926, 87.62898308970034],
       [127.36187869331086, 36.37535465443818, 83.32903400622308],
       [127.36185069833671, 36.37538641910950, 73.30923206266016],
       [127.36187962413482, 36.37538991126403, 78.40729189477861],
       [127.36187109799752, 36.37540649546973, 75.18056002352387],
       [127.36189802357711, 36.37538342928028, 79.72435124404728],
       [127.36193027549338, 36.37538836864599, 89.91689125634730],
       [127.36189144649190, 36.37539368570115, 84.02365456707776],
       [127.36190791860993, 36.37539843502595, 82.20102295931429],
       [127.36190641636905, 36.37537306104918, 81.48951627779752],
       [127.36191272941112, 36.37538447091011, 83.15691664442420],
       [127.36187706426907, 36.37540938064620, 72.09456023760140],
       [127.36189631371880, 36.37541274328017, 79.57015205733478],
       [127.36190132214502, 36.37539057849948, 76.86334722023457],
       [127.36190424617884, 36.37540662270536, 80.89580420870334],
       [127.36189064741583, 36.37540979241560, 82.52725440263748],
       [127.36192029449990, 36.37538829007815, 85.11400338914245],
       [127.36193045698587, 36.37539433130161, 83.39064878504723],
       [127.36192960178703, 36.37538852094154, 82.62703764811158],
       [127.36189886182865, 36.37537404623500, 77.36153149697930],
       [127.36189719502038, 36.37538864849021, 78.39230751339346],
       [127.36189207916274, 36.37543241045336, 82.61139924731106],
       [127.36189283390654, 36.37542072191093, 79.42785482853651],
       [127.36190510697855, 36.37541412530306, 84.04453936684877],
       [127.36191998335127, 36.37541324020075, 84.96924190502614],
       [127.36190424682434, 36.37541331601539, 76.13638576865196],
       [127.36186545171842, 36.37541990969942, 68.19992864411324],
       [127.36190326460910, 36.37544932454715, 78.44270940776914],
       [127.36193615735579, 36.37542505996182, 79.99100957065821],
       [127.36193012450198, 36.37542126786544, 80.97172193229198],
       [127.36192234418225, 36.37541606832757, 85.75176991429180],
       [127.36193496566182, 36.37540735261481, 91.64813623111695],
       [127.36193128470607, 36.37543982000753, 81.25457623135298],
       [127.36194299973636, 36.37542292306200, 86.15948107279837],
       [127.36188853254752, 36.37543036089664, 77.92777322232723],
       [127.36192580857244, 36.37543744947511, 88.39365600422025],
       [127.36192830139643, 36.37543577487212, 83.72902447823435],
       [127.36191082591222, 36.37542987636698, 77.89856333285570],
       [127.36190879501724, 36.37543273571561, 79.87691374961287],
       [127.36192668581361, 36.37541940700249, 84.29662227910012],
       [127.36194740218875, 36.37538934447233, 79.71593346912414],
       [127.36193889255297, 36.37541440146531, 81.75504378881305],
       [127.36193278201497, 36.37542060580991, 85.78157109860331],
       [127.36195811263835, 36.37540933313492, 89.05135697871447],
       [127.36194252278457, 36.37546667599860, 87.17047359049320],
       [127.36197636455140, 36.37546148857876, 92.03350590821356],
       [127.36197788825754, 36.37543696588606, 92.82929212879390],
       [127.36194979663578, 36.37543118197494, 89.32822999265045],
       [127.36197955612342, 36.37542515657608, 95.20326492749155],
       [127.36196938664564, 36.37540517234024, 89.44918884709477],
       [127.36195255463642, 36.37545545472724, 85.59890690911561],
       [127.36196375054196, 36.37545139455234, 95.06070507131517],
       [127.36195947974262, 36.37545291157970, 93.16919683385640],
       [127.36200039028229, 36.37545394231719, 99.09239228628576],
       [127.36199207654970, 36.37545524995512, 96.88582266960293],
       [127.36197575607834, 36.37545451305133, 95.15674373693764],
       [127.36197004015040, 36.37544754554456, 97.83293030690402],
       [127.36196405189202, 36.37546175760488, 98.60977576859295],
       [127.36197448501350, 36.37547957502726, 93.00168403144926],
       [127.36195175768181, 36.37547047058795, 88.39467669464648],
       [127.36198046888555, 36.37545138741740, 102.93329608067870],
       [127.36196213418125, 36.37544934407283, 95.94301102310419],
       [127.36199294113086, 36.37545829886535, 105.90759371500462],
       [127.36197054555873, 36.37546805253121, 103.79502590745687],
       [127.36196515965517, 36.37545476999560, 98.03336934465915],
       [127.36197710152760, 36.37544796353115, 97.79362186416984],
       [127.36197435468860, 36.37545518871134, 100.68045512586832],
       [127.36195058668312, 36.37543376749272, 90.94568812288344],
       [127.36194528866184, 36.37544662972365, 95.72861944139004],
       [127.36193682210666, 36.37544190414675, 95.73574416153133],
       [127.36193522656677, 36.37541128586613, 97.89146574027836],
       [127.36198115577011, 36.37542190400107, 108.06923295278102],
       [127.36197692610639, 36.37544020465071, 106.08551548700780],
       [127.36199380176494, 36.37546502226031, 105.30911578983068],
       [127.36201224692152, 36.37548306764627, 107.16849540267140],
       [127.36197388867403, 36.37548106502413, 106.34573484398425],
       [127.36198666286543, 36.37546444175069, 102.05805661808699],
       [127.36196324929109, 36.37545658745947, 103.69780282024294],
       [127.36196654293124, 36.37549635130213, 96.82888088282198],
       [127.36198045227081, 36.37547193498625, 101.22744364663959],
       [127.36199308978539, 36.37543622123098, 102.55568293761462],
       [127.36197382041090, 36.37543381748385, 102.61866257525980],
       [127.36196842263118, 36.37544824930975, 98.56035456713289],
       [127.36197192138755, 36.37547995208148, 97.32002762146294],
       [127.36200536000477, 36.37549124352125, 104.59520571865141],
       [127.36200307499058, 36.37547820052375, 105.19062543567270],
       [127.36199295545150, 36.37548187845034, 100.77408804465085],
       [127.36200199164375, 36.37548436755156, 100.58759959228337],
       [127.36195911894411, 36.37546331286001, 94.85323267057538],
       [127.36196004311647, 36.37546513172110, 94.28091063443571],
       [127.36199304892459, 36.37547386366232, 99.74616164993495],
       [127.36196887737418, 36.37543890487089, 92.01192383468151],
       [127.36199683718976, 36.37543285785707, 98.96570110786706],
       [127.36200893795943, 36.37545029856861, 104.18077304121107],
       [127.36198327698442, 36.37545968876633, 96.92918517347425],
       [127.36198201537947, 36.37548788317643, 99.05339086893946],
       [127.36198257186304, 36.37548200118037, 101.67695423960686],
       [127.36196943138607, 36.37547267540731, 93.13285628519952],
       [127.36194291388853, 36.37546583658764, 90.88196429610252],
       [127.36193714702144, 36.37546125934176, 90.77079096436501],
       [127.36191889408440, 36.37543554964278, 87.46100120898336],
       [127.36195135437004, 36.37545829782730, 94.86853436660022],
       [127.36195643551137, 36.37546960144508, 99.74752086959779],
       [127.36194536249394, 36.37544405258677, 91.43012239690870],
       [127.36195446450360, 36.37543976689409, 90.85375571530312],
       [127.36194791930839, 36.37544326601278, 96.14587108511478],
       [127.36192896656647, 36.37541901867247, 91.35792924463749],
       [127.36194866470321, 36.37542291211993, 93.39020068384707],
       [127.36192699113676, 36.37542300987828, 94.33000971190631],
       [127.36191981534203, 36.37540638408708, 87.89746209885925],
       [127.36193670246529, 36.37542519816913, 93.49639899842441],
       [127.36194226755903, 36.37543831529946, 98.68602700531483],
       [127.36191270324682, 36.37543078466344, 90.51029817294329],
       [127.36190417347288, 36.37543269857477, 88.85900345630944],
       [127.36190577804344, 36.37544225296627, 88.51293290592730],
       [127.36189387854586, 36.37541867107010, 81.00867335684597],
       [127.36189848325176, 36.37541781145028, 86.18244894035161],
       [127.36190149449732, 36.37540061246536, 91.74319865461439],
       [127.36190527834812, 36.37538924434617, 90.19135717395693],
       [127.36192582758193, 36.37540163511608, 94.24584516603500],
       [127.36195549826412, 36.37540627612978, 98.53398041240871],
       [127.36194426412574, 36.37539139097322, 99.47751086018980],
       [127.36191589512659, 36.37538445067560, 96.35083365440369],
       [127.36191466485076, 36.37537369671813, 100.40726525429636],
       [127.36191741670170, 36.37537163429889, 91.63674845453352],
       [127.36192714754769, 36.37539197403900, 96.08643900137395],
       [127.36192457498262, 36.37540329229729, 90.88991288561374],
       [127.36189572486597, 36.37540424044010, 85.68169922847301],
       [127.36192163723304, 36.37541292444364, 92.57231478672475],
       [127.36193285995567, 36.37539471198967, 96.15879279561341],
       [127.36191439565705, 36.37537218504330, 94.84328333754092],
       [127.36191921257341, 36.37538005790569, 96.25403858069330],
       [127.36192447257301, 36.37537656746942, 91.55594060849398],
       [127.36194462296200, 36.37538490971057, 94.85124721936882],
       [127.36193960870368, 36.37540239410561, 95.48596295062453],
       [127.36186724958648, 36.37541109578223, 81.71669849101454],
       [127.36189563749861, 36.37535855832991, 86.65667654667050],
       [127.36189246221008, 36.37536191929962, 90.48819407541305],
       [127.36192575576841, 36.37537116144003, 98.71481145732105],
       [127.36193159418382, 36.37535095452392, 98.00018565822393],
       [127.36191203972993, 36.37537047985519, 95.46283417381346],
       [127.36190492175929, 36.37537575219674, 92.89052812941372],
       [127.36190729446842, 36.37535637100761, 90.15371466055512],
       [127.36190009475058, 36.37535421221811, 90.76525602582842],
       [127.36192203838696, 36.37535006639547, 94.62238599546254],
       [127.36190157825428, 36.37535170547737, 89.68659937847406],
       [127.36189322347612, 36.37534735361577, 93.14551118761301],
       [127.36191141271642, 36.37534441812738, 95.93065051548183],
       [127.36189103509166, 36.37536594316349, 91.14620923064649],
       [127.36189084068874, 36.37535353185716, 90.03159973770380],
       [127.36187881488763, 36.37531347141279, 86.69702893123031],
       [127.36188344617406, 36.37532937715046, 84.05595530662686],
       [127.36193047943351, 36.37536327870536, 101.05988089926541],
       [127.36194286850778, 36.37536995277068, 99.25624185707420],
       [127.36192024666919, 36.37537635593875, 96.88009617570788],
       [127.36190626288398, 36.37539509413839, 95.29289712943137],
       [127.36190049682385, 36.37538871255572, 93.17355124466121],
       [127.36189487200404, 36.37541108086388, 95.08370935171843],
       [127.36187356564976, 36.37540354640512, 84.70855551678687],
       [127.36186714600444, 36.37542104385287, 87.36692737322301],
       [127.36187569089415, 36.37539147502834, 92.45462309848517],
       [127.36187954103362, 36.37536790305242, 93.31548218056560],
       [127.36192081965069, 36.37535240661166, 96.48983747232705],
       [127.36192676141837, 36.37539187880675, 97.82249498832971],
       [127.36194533685780, 36.37539684365767, 101.67722399067134],
       [127.36190459159486, 36.37537225225420, 92.76986399479210],
       [127.36188608827995, 36.37540220589663, 89.83737600967288],
       [127.36188263062283, 36.37541964458340, 85.99622695520520],
       [127.36191431763542, 36.37539029582074, 93.59046041686088],
       [127.36189532431156, 36.37540949617965, 92.19009057898074],
       [127.36191597632505, 36.37543095703482, 96.12708044145256],
       [127.36193858183245, 36.37544116949487, 101.17410526797175],
       [127.36192481637693, 36.37540061185440, 98.04512570146471],
       [127.36194579833874, 36.37539212087795, 105.77629593852907],
       [127.36191360704369, 36.37538840603825, 97.05266729556024],
       [127.36192056470493, 36.37540504109962, 95.69634278956801],
       [127.36191608200896, 36.37540128809569, 97.57568823732436],
       [127.36193983620065, 36.37541662682534, 108.98351890500635],
       [127.36189323707985, 36.37540553807178, 91.38809331599623],
       [127.36190370838887, 36.37540420339811, 92.24154951144010],
       [127.36191664293285, 36.37540698577146, 98.32665183860809],
       [127.36190614916946, 36.37539948290799, 96.56621726974845],
       [127.36189736772762, 36.37540723447407, 92.06294019427150],
       [127.36189766383029, 36.37543674612073, 95.97631979733706],
       [127.36193168487705, 36.37541334173230, 97.38790677022189],
       [127.36191239039216, 36.37537690443251, 96.85050064977258],
       [127.36192982415371, 36.37537916536140, 99.78116777352989],
       [127.36190327973129, 36.37537963791679, 92.72405099496245],
       [127.36188454862388, 36.37541031720723, 92.71646738518029],
       [127.36191008755790, 36.37541319008280, 100.08069321140647],
       [127.36193208418956, 36.37540429866024, 99.97360216919333],
       [127.36193168794048, 36.37541698300309, 102.31806477811188],
       [127.36192468180290, 36.37541717947315, 100.70261666364968],
       [127.36192621998110, 36.37540573301539, 100.21968903206289],
       [127.36193423404555, 36.37538914914015, 100.01510038971901],
       [127.36193622831210, 36.37542978534718, 101.02710907161236],
       [127.36189722142022, 36.37545390981969, 98.00830774288625],
       [127.36189226189337, 36.37542890114227, 98.25482345838100],
       [127.36191007154638, 36.37540782917996, 97.82097806595266],
       [127.36190755193921, 36.37543818065927, 92.00064248312265],
       [127.36190856435505, 36.37542953858914, 97.13122308067977],
       [127.36193514159237, 36.37542917724624, 103.76736715994775],
       [127.36188035692891, 36.37543246043727, 89.29724807012826],
       [127.36190636905805, 36.37541392162461, 92.97851211484522],
       [127.36190150169901, 36.37542501663413, 98.72277438454330],
       [127.36192972412243, 36.37544233870920, 106.25882598385215],
       [127.36195325202367, 36.37544561244964, 105.83279105089605],
       [127.36193419895820, 36.37545573581784, 97.45811347570270],
       [127.36194509033153, 36.37543344158296, 102.83854321483523],
       [127.36192764721000, 36.37540818907395, 103.02794316876680],
       [127.36192226291361, 36.37542897964021, 109.45209137536585],
       [127.36192462346357, 36.37543786540012, 111.47037965618074],
       [127.36189613095544, 36.37544240211328, 105.50166594702750],
       [127.36192817645572, 36.37546649237219, 106.63999722618610],
       [127.36193169962867, 36.37544721766200, 105.37493589334190],
       [127.36195446985541, 36.37543762064524, 111.17323417961597],
       [127.36194256068138, 36.37543522962012, 107.63056449778378],
       [127.36190628033718, 36.37543292390401, 97.64528290834278],
       [127.36194714085120, 36.37541534747228, 109.06046157609671],
       [127.36195602303448, 36.37545313130456, 107.63266987632960],
       [127.36192413086459, 36.37544143846090, 100.88376581761986],
       [127.36194009151160, 36.37543586938831, 105.49260969832540],
       [127.36194125256273, 36.37544289623542, 108.74178366456181],
       [127.36191307339712, 36.37543507278501, 103.16280133277178],
       [127.36194132320983, 36.37546313972839, 107.29324950836599],
       [127.36193958425424, 36.37545852520539, 109.26642937678844],
       [127.36192159970417, 36.37541765942046, 104.20851255860180],
       [127.36190937023710, 36.37544020201365, 100.67653560452163],
       [127.36189406142542, 36.37547448082601, 97.43961638770998],
       [127.36189042921545, 36.37541153935582, 91.72422266472131],
       [127.36186668290671, 36.37542369137533, 88.97353137563914],
       [127.36191980686496, 36.37542245702761, 99.58129437454045],
       [127.36189458067238, 36.37543135660265, 95.49020368698984],
       [127.36191592274777, 36.37543741862964, 99.53285920806229],
       [127.36190456326334, 36.37544748216144, 100.19854546524584],
       [127.36187714367149, 36.37543529817034, 94.57268826849759],
       [127.36189766180740, 36.37542554935956, 97.98395412694663],
       [127.36190452114990, 36.37542250671197, 93.87461855541915],
       [127.36188453642357, 36.37541692615028, 87.25800987891853],
       [127.36193239879819, 36.37543576686478, 96.43284731637686],
       [127.36195505004657, 36.37543023046317, 101.23870513122529],
       [127.36188960578829, 36.37544943837764, 83.08448036573827],
       [127.36187975084218, 36.37544447719464, 83.05337362084538],
       [127.36189330282905, 36.37547017131757, 92.08666341379285],
       [127.36190250870752, 36.37544688379292, 95.91566180158406]
       ]
   }
}
